First,Last,Phone_h,Phone_m,Phone_w,Address,City,State,Zip
Christy,Manchester,(719) 090-8967,(889) 572-6666,(111) 469-3053,123 Anywhere Street,Los Angeles,CA,90001
Vonda,Alford,(052) 873-0753,(124) 880-9345,(483) 894-8864,777 West Filmore,Los Angeles,CA,90002
Wilton,Eder,(081) 812-9212,(519) 781-7349,(495) 641-8733,48920 San Carlos,Santa Fe,CA,90003
Milan,Montelongo,(332) 056-7564,(103) 497-3086,(873) 279-0758,123 Anywhere Street,Los Angeles,CA,90005
Sofia,Warfield,(423) 165-7500,(459) 671-1175,(288) 418-0508,1715 Scott Dr,San Francisco,CA,90006
Brendon,Bourque,(074) 130-5661,(824) 166-9685,(609) 734-4206,111 Silicon Valley Road,Denver,CA,90007
Stefan,Severin,(582) 300-4042,(268) 145-0601,(962) 144-6362,9 IBM Path,San Francisco,CA,90011
Catalina,Moretti,(056) 715-0989,(225) 727-1032,(224) 982-7315,9 IBM Path,San Mateo,CA,90012
Freida,Pattison,(572) 163-9985,(090) 105-2414,(610) 131-5970,1715 Scott Dr,San Jose,CA,90013
Jewell,Landrum,(276) 268-2375,(398) 140-0114,(553) 607-3891,48920 San Carlos,Salt Lake City,CA,90014
Felton,Slavens,(376) 475-0104,(470) 079-4418,(634) 142-6788,999 Baker Way,Persistance,CA,90015
Berta,Reeves,(953) 879-6325,(393) 686-8574,(108) 496-6665,777 West Filmore,San Jose,CA,90017
Edwina,Henning,(516) 391-3078,(064) 446-2729,(466) 215-3780,48920 San Carlos,Denver,CA,90018
Jake,Kraus,(628) 971-4290,(157) 082-0244,(138) 510-5317,9 IBM Path,Alabama,CA,90020-0001
Bradford,Roane,(495) 226-4886,(759) 292-0210,(034) 098-5411,321 University Ave.,Cupertino,CA,90021
Tom,Benham,(444) 806-4186,(500) 335-0436,(510) 375-8267,123 Anywhere Street,Cupertino,CA,90028
Greta,Rusk,(794) 881-1242,(655) 574-6601,(352) 813-9352,999 Baker Way,St. Petersburg,CA,90029
Colby,Grigg,(400) 495-0489,(798) 271-7150,(975) 168-8475,321 University Ave.,San Mateo,CA,90031
Jeannette,Stoddard,(224) 250-9019,(185) 012-9878,(265) 428-3808,321 University Ave.,San Jose,CA,90033
Keneth,Giffin,(810) 369-6189,(769) 213-3383,(135) 929-5719,1715 Scott Dr,Salt Lake City,CA,90037
Timothy,Dowdy,(226) 224-4748,(254) 316-5089,(642) 308-3576,1715 Scott Dr,Ohio,CA,90038
Guy,Fluker,(608) 178-1109,(448) 520-3372,(348) 517-9282,345 Sugar Blvd.,San Francisco,CA,90044
Ursula,Presnell,(932) 992-3389,(124) 765-8379,(204) 067-4218,111 Silicon Valley Road,Santa Fe,CA,90055
Latonya,Gipe,(937) 081-8314,(204) 324-5916,(586) 588-5722,777 West Filmore,San Jose,CA,90057
Santo,Marro,(517) 486-1537,(459) 055-2767,(929) 810-5452,999 Baker Way,San Francisco,CA,90058
Jamison,Hershey,(566) 015-6417,(452) 452-8222,(935) 193-8439,999 Baker Way,Sunnyvale,CA,90059
Pedro,Iles,(053) 079-6468,(128) 032-7079,(560) 443-9184,321 University Ave.,San Mateo,CA,90062
Jesus,Leigh,(250) 369-2999,(046) 774-5724,(902) 965-9775,999 Baker Way,Santa Monica,CA,90070
Gregory,Meadors,(087) 580-1059,(560) 118-9099,(180) 846-0872,111 Silicon Valley Road,Denver,CA,90078
Greta,Cammack,(111) 499-9600,(569) 045-4612,(066) 573-2797,48920 San Carlos,St. Petersburg,CA,90089
Patricia,Hannan,(867) 425-9648,(748) 333-0212,(632) 962-4089,777 West Filmore,Alabama,CA,90093
Louise,Nitz,(533) 934-4970,(553) 063-7736,(540) 915-5310,345 Sugar Blvd.,Sunnyvale,CA,90263
Federico,Tylor,(637) 988-6622,(732) 551-8715,(390) 648-0992,777 West Filmore,Santa Fe,CA,90310
Marcelino,Scully,(246) 931-0008,(626) 158-0316,(621) 896-3915,111 Silicon Valley Road,Santa Monica,CA,90408
Noe,Kellar,(095) 618-0570,(210) 471-9347,(741) 937-1869,777 West Filmore,Denver,CA,90813
Kennith,Wingert,(614) 438-3932,(476) 533-0654,(684) 420-5479,1715 Scott Dr,Santa Fe,CA,91114
Coleman,Mclachlan,(573) 325-5384,(832) 854-2890,(095) 691-0424,48920 San Carlos,Persistance,CA,91125
Mikel,Dail,(931) 830-4968,(204) 356-5756,(769) 559-4769,345 Sugar Blvd.,San Mateo,CA,91205
Ola,Schwarz,(125) 262-4476,(669) 046-6589,(290) 660-6926,321 University Ave.,Santa Fe,CA,91305
Betsy,Fujimoto,(091) 919-6769,(241) 668-6621,(169) 481-0423,321 University Ave.,Denver,CA,91330
Tommy,Garretson,(849) 803-7087,(987) 524-8277,(618) 400-3338,1715 Scott Dr,Salt Lake City,CA,91603
Marc,Boysen,(010) 310-1491,(163) 479-3800,(932) 176-5790,123 Anywhere Street,St. Petersburg,CA,91733
Johnnie,Clark,(908) 303-8722,(853) 004-3979,(292) 182-1269,9 IBM Path,Cupertino,CA,91755
Beth,Hitchens,(535) 927-5262,(618) 800-2363,(847) 865-9775,123 Anywhere Street,Kansas City,CA,91770
Neal,Hubbard,(545) 599-8500,(323) 957-8380,(083) 775-2105,345 Sugar Blvd.,Ohio,CA,91776
Martina,Mathias,(144) 480-3291,(203) 435-8312,(283) 341-0564,123 Anywhere Street,Ohio,CA,91785
Concetta,Landers,(260) 264-0997,(639) 025-8219,(652) 263-7287,321 University Ave.,Los Angeles,CA,91934
Quentin,Blackmore,(897) 288-0908,(055) 620-4083,(765) 089-5081,9 IBM Path,San Mateo,CA,91963
Gregory,Bangs,(941) 178-2903,(683) 652-3019,(461) 167-2227,321 University Ave.,St. Petersburg,CA,91980
Dorian,Bean,(928) 408-2982,(560) 569-5860,(153) 683-3140,345 Sugar Blvd.,Kansas City,CA,92105
Essie,Schantz,(068) 688-5731,(288) 508-2176,(306) 467-1072,777 West Filmore,San Jose,CA,92112
Terence,Whitchurch,(155) 251-7106,(672) 083-6885,(442) 957-2100,123 Anywhere Street,Santa Fe,CA,92113
Mavis,Peralta,(682) 057-4691,(284) 655-1377,(045) 053-7892,777 West Filmore,Santa Fe,CA,92162
Rich,Rambert,(989) 391-0404,(935) 012-4296,(398) 695-8855,67321 West Siam St.,Salt Lake City,CA,92173
Timothy,Navarette,(116) 521-5653,(326) 100-4366,(307) 092-0989,1715 Scott Dr,Denver,CA,92202
Beau,Byrnes,(222) 657-9010,(780) 849-7642,(238) 867-5234,321 University Ave.,Denver,CA,92203
Adolfo,Gabbard,(190) 059-1752,(205) 471-3081,(815) 714-9839,48920 San Carlos,Kansas City,CA,92225
Elijah,Winder,(536) 579-1768,(041) 337-8957,(175) 809-9451,1715 Scott Dr,San Mateo,CA,92227
Esperanza,Escarcega,(091) 121-6868,(959) 599-1256,(142) 837-4369,777 West Filmore,Cupertino,CA,92230
Lindsay,Holst,(573) 101-0974,(217) 592-3866,(514) 992-1564,999 Baker Way,Alabama,CA,92231
Brent,Pigg,(250) 584-6924,(519) 265-7681,(486) 148-8440,67321 West Siam St.,Denver,CA,92232
Flora,Schmid,(706) 064-0131,(440) 260-5019,(782) 168-1411,777 West Filmore,Santa Monica,CA,92233
Cliff,Fridley,(432) 400-0410,(643) 743-0143,(754) 922-5775,48920 San Carlos,Denver,CA,92236
Janna,Scherr,(501) 319-7254,(115) 569-6043,(486) 930-7066,1715 Scott Dr,Ohio,CA,92240
Lemuel,Gowin,(398) 642-3515,(356) 989-7692,(050) 047-7166,111 Silicon Valley Road,Los Angeles,CA,92242
Stuart,Fikes,(520) 611-1940,(393) 826-6622,(568) 429-7606,999 Baker Way,San Mateo,CA,92243
Armando,Loredo,(731) 100-0523,(183) 582-5999,(226) 210-0339,777 West Filmore,Salt Lake City,CA,92249
Florencio,Spradley,(265) 642-9440,(173) 441-6423,(683) 880-1264,345 Sugar Blvd.,Los Angeles,CA,92250
Hector,Harlow,(070) 027-5672,(579) 504-1361,(313) 906-7913,123 Anywhere Street,San Jose,CA,92252
Larry,Mozee,(690) 506-2381,(097) 100-8741,(703) 291-2257,9 IBM Path,Denver,CA,92254
Lesa,Absher,(712) 256-2288,(182) 719-4911,(228) 542-4463,123 Anywhere Street,Kansas City,CA,92257
Judi,Leppert,(890) 497-2101,(748) 939-3520,(349) 108-2437,111 Silicon Valley Road,Kansas City,CA,92258
Marilyn,Raine,(581) 197-1931,(764) 274-7513,(341) 426-1793,1715 Scott Dr,Sunnyvale,CA,92266
Kristopher,Robles,(847) 582-9714,(603) 119-0152,(569) 940-9363,67321 West Siam St.,Ohio,CA,92273
Andrea,Shisler,(047) 831-3220,(058) 474-7169,(238) 370-5898,1715 Scott Dr,Kansas City,CA,92274
Rosario,Metzger,(669) 362-7469,(264) 486-4879,(946) 181-1140,9 IBM Path,Sunnyvale,CA,92275
Aurora,Gafford,(417) 905-7167,(928) 295-5625,(080) 879-7948,1715 Scott Dr,Ohio,CA,92281
Isiah,Kapoor,(405) 705-1484,(854) 470-0598,(550) 877-0883,67321 West Siam St.,Alabama,CA,92283
Marlin,Delamora,(477) 712-1756,(108) 597-6917,(734) 833-9797,9 IBM Path,Los Angeles,CA,92284
Dwayne,Remley,(430) 267-9796,(651) 078-8811,(668) 739-0568,9 IBM Path,Los Angeles,CA,92285
Newton,Lora,(121) 031-4008,(432) 189-0013,(787) 470-5656,1715 Scott Dr,Los Angeles,CA,92311
Nita,Puleo,(064) 774-7773,(831) 355-5360,(036) 312-3516,9 IBM Path,Sunnyvale,CA,92314
Nigel,Mcgrail,(565) 919-4439,(016) 733-5222,(746) 848-7437,123 Anywhere Street,Ohio,CA,92315
Magdalena,Vanhoy,(502) 060-7790,(070) 504-9713,(208) 614-8061,345 Sugar Blvd.,Santa Fe,CA,92321
Wilber,Linthicum,(665) 999-4953,(915) 317-1136,(142) 102-7001,777 West Filmore,Persistance,CA,92341
Dennis,Wynn,(943) 873-8959,(732) 753-7001,(824) 881-5903,999 Baker Way,Denver,CA,92347
Clare,Schlemmer,(821) 534-4771,(455) 894-5954,(553) 485-6630,321 University Ave.,Alabama,CA,92356
Hilda,Rocco,(380) 563-7130,(479) 474-0837,(458) 687-9284,48920 San Carlos,Los Angeles,CA,92363
Ginger,Troncoso,(030) 082-3214,(314) 766-3335,(417) 133-0157,777 West Filmore,St. Petersburg,CA,92365
Errol,Jarrell,(153) 615-9979,(721) 639-6024,(177) 351-2041,111 Silicon Valley Road,Denver,CA,92368
Phillip,Richey,(731) 992-2590,(071) 624-5183,(349) 758-5076,321 University Ave.,St. Petersburg,CA,92386
Colton,Haston,(998) 986-2127,(899) 478-7248,(694) 394-4267,9 IBM Path,Ohio,CA,92401
Harold,Varney,(428) 821-5676,(135) 969-1372,(795) 702-6012,123 Anywhere Street,Denver,CA,92404
Callie,Byron,(926) 183-9075,(453) 548-0579,(408) 734-9990,67321 West Siam St.,San Jose,CA,92408
Lilian,Rethman,(986) 931-9570,(710) 559-8992,(814) 583-6837,345 Sugar Blvd.,Persistance,CA,92410
Rigoberto,Theiss,(517) 901-0732,(260) 473-3630,(934) 070-3735,67321 West Siam St.,San Mateo,CA,92411
Carmen,Lentini,(645) 231-8683,(603) 125-1893,(292) 093-8700,111 Silicon Valley Road,Denver,CA,92515
Dayna,Emerson,(189) 542-2497,(014) 388-3739,(998) 193-2891,123 Anywhere Street,Ohio,CA,92543
Harland,Mays,(479) 877-1554,(888) 480-1209,(572) 327-7349,321 University Ave.,Sunnyvale,CA,92548
Gay,Waltrip,(331) 725-2747,(094) 471-6246,(420) 525-3102,321 University Ave.,Sunnyvale,CA,92700
Emmanuel,Suiter,(416) 678-3701,(198) 932-3692,(893) 288-2564,1715 Scott Dr,St. Petersburg,CA,93016
Tessa,Yokota,(461) 330-6682,(811) 192-6256,(810) 708-1075,48920 San Carlos,Cupertino,CA,93032
Ariel,Greenhaw,(043) 068-2199,(627) 775-3254,(537) 093-7443,999 Baker Way,San Mateo,CA,93107
Raymundo,Charron,(195) 156-9188,(542) 338-3618,(254) 663-1340,1715 Scott Dr,San Francisco,CA,93117
Alyce,Room,(108) 743-1345,(223) 057-2454,(166) 395-4551,48920 San Carlos,Kansas City,CA,93150
Nathaniel,Gazaway,(335) 050-2954,(960) 464-3114,(660) 172-2149,321 University Ave.,San Francisco,CA,93201
Kieth,Duffin,(051) 611-2926,(384) 620-2790,(388) 357-8808,123 Anywhere Street,St. Petersburg,CA,93202
Malinda,Crosland,(266) 707-6993,(175) 013-1740,(322) 886-5363,67321 West Siam St.,Santa Fe,CA,93203
Jaime,Hysell,(992) 558-8066,(360) 404-5653,(671) 941-9335,1715 Scott Dr,Santa Monica,CA,93204
King,Nadeau,(856) 712-1734,(514) 811-1099,(006) 232-9210,999 Baker Way,Salt Lake City,CA,93205
Paul,Gutshall,(309) 633-6564,(593) 806-7337,(445) 066-1816,777 West Filmore,Santa Monica,CA,93206
Deann,Jett,(165) 937-6047,(738) 995-5883,(433) 965-5471,1715 Scott Dr,Denver,CA,93212
Lynnette,Sterns,(914) 265-4624,(098) 076-8296,(185) 382-2517,345 Sugar Blvd.,Alabama,CA,93215
Vilma,Dawe,(494) 107-7482,(123) 459-1678,(618) 566-5271,321 University Ave.,Santa Monica,CA,93216
Mindy,Montalto,(200) 009-6797,(152) 415-6044,(429) 089-1372,777 West Filmore,Denver,CA,93218
Nell,Deas,(904) 954-5319,(169) 597-9719,(695) 697-4355,321 University Ave.,Salt Lake City,CA,93219
Harriet,Parkhill,(691) 204-0998,(015) 124-6593,(535) 700-4294,123 Anywhere Street,Santa Fe,CA,93220
Inez,Bitter,(006) 948-2096,(496) 958-4351,(359) 908-7717,321 University Ave.,Denver,CA,93221
Terrie,Bustamante,(539) 960-4585,(049) 130-3068,(941) 621-6708,999 Baker Way,Persistance,CA,93223
Deann,Marone,(086) 642-3682,(181) 158-7693,(299) 139-2539,123 Anywhere Street,Sunnyvale,CA,93227
Jannie,Vanwingerden,(989) 129-9888,(720) 935-6111,(676) 297-8616,123 Anywhere Street,Salt Lake City,CA,93234
Kris,Mccloud,(399) 732-4218,(917) 497-7553,(723) 412-1958,1715 Scott Dr,Salt Lake City,CA,93235
Tisha,Thiel,(350) 921-5680,(517) 912-2842,(365) 322-1005,123 Anywhere Street,Denver,CA,93239
Lolita,Swann,(322) 943-2492,(073) 892-6741,(884) 745-4791,67321 West Siam St.,Kansas City,CA,93240
Carson,Barragan,(700) 366-5031,(244) 461-7758,(136) 904-5968,123 Anywhere Street,San Mateo,CA,93241
Toney,Chidester,(212) 502-9313,(080) 475-2728,(245) 764-3664,321 University Ave.,Santa Monica,CA,93244
Hal,Mosca,(410) 182-8136,(804) 165-5040,(663) 376-3024,9 IBM Path,San Jose,CA,93247
Dewayne,Cofield,(612) 560-1132,(938) 016-9389,(017) 027-7191,321 University Ave.,Kansas City,CA,93250
Tyler,Ebeling,(828) 095-0380,(789) 297-1710,(369) 815-7556,9 IBM Path,Denver,CA,93251
Catalina,Hibbitts,(765) 054-4544,(316) 119-8163,(815) 371-5017,345 Sugar Blvd.,San Francisco,CA,93256
Christi,Coppage,(013) 411-4539,(588) 604-1484,(738) 512-6052,9 IBM Path,Santa Monica,CA,93257
Marta,Witter,(932) 117-6214,(051) 106-5556,(505) 430-4034,1715 Scott Dr,Los Angeles,CA,93258
Stacey,Mangano,(590) 020-6679,(910) 082-3416,(659) 316-3286,777 West Filmore,San Francisco,CA,93261
Bryan,Barone,(587) 321-6053,(596) 366-1721,(415) 027-6162,9 IBM Path,Ohio,CA,93263
Stefan,Rundell,(818) 960-4016,(474) 800-3608,(138) 867-3728,48920 San Carlos,Ohio,CA,93266
Dorothy,Pelfrey,(291) 192-0779,(261) 927-0345,(673) 411-1786,48920 San Carlos,St. Petersburg,CA,93267
Leo,Eyler,(238) 630-9202,(010) 247-7624,(891) 464-4979,9 IBM Path,Persistance,CA,93270
Gilberto,Waid,(059) 357-9349,(920) 365-9613,(850) 961-7341,48920 San Carlos,Cupertino,CA,93274
Olga,Sykora,(284) 970-6975,(153) 891-4500,(965) 481-4650,777 West Filmore,San Jose,CA,93280
Lilia,Alfonso,(143) 382-0853,(784) 580-6791,(289) 887-8634,345 Sugar Blvd.,San Francisco,CA,93283
Rey,Facer,(622) 688-5137,(888) 355-4273,(377) 495-8676,999 Baker Way,Sunnyvale,CA,93285
Marcelino,Mccarthy,(166) 341-9786,(837) 500-4603,(017) 898-2372,123 Anywhere Street,Los Angeles,CA,93286
Adeline,Sullins,(125) 205-2831,(804) 865-7456,(530) 376-9552,48920 San Carlos,Los Angeles,CA,93291
Casey,Heider,(772) 609-4807,(953) 107-0262,(819) 979-5433,111 Silicon Valley Road,San Francisco,CA,93301
Houston,Carbaugh,(983) 444-3700,(863) 543-0203,(425) 440-2565,777 West Filmore,San Mateo,CA,93304
Claire,Shelton,(053) 659-9515,(545) 025-8663,(061) 399-6435,48920 San Carlos,Persistance,CA,93305
Dawn,Granado,(657) 908-6660,(776) 767-9989,(139) 559-6619,9 IBM Path,Alabama,CA,93307
Karina,Kresge,(633) 238-2409,(356) 221-1810,(612) 433-0542,345 Sugar Blvd.,Cupertino,CA,93383
Yvette,Urick,(536) 380-9787,(830) 827-5833,(132) 191-4592,123 Anywhere Street,Santa Fe,CA,93385
Lloyd,Gowins,(020) 062-3174,(041) 291-7117,(732) 619-6559,999 Baker Way,Kansas City,CA,93387
Hubert,Mascorro,(171) 643-7973,(982) 499-3013,(479) 116-1653,9 IBM Path,Sunnyvale,CA,93401
Alexandria,Negrin,(820) 248-6763,(393) 822-3812,(907) 045-5329,999 Baker Way,Santa Fe,CA,93405
Maxine,Hassen,(895) 351-0164,(495) 493-1662,(764) 108-5255,345 Sugar Blvd.,Ohio,CA,93426
Claire,Edmundson,(869) 980-4930,(332) 534-2296,(967) 305-4929,321 University Ave.,Persistance,CA,93434
Michael,Langham,(052) 327-2649,(079) 419-0218,(641) 290-1492,111 Silicon Valley Road,Los Angeles,CA,93458
Edith,Burge,(080) 102-2230,(595) 465-7931,(909) 663-8396,321 University Ave.,Santa Fe,CA,93501
Sang,Crowe,(906) 205-9052,(625) 886-6204,(364) 427-6223,9 IBM Path,Sunnyvale,CA,93516
Bret,Ton,(045) 245-5190,(439) 631-6439,(788) 551-4999,1715 Scott Dr,San Jose,CA,93541
Jeannette,Kirst,(532) 000-6299,(944) 981-6583,(673) 860-7962,999 Baker Way,St. Petersburg,CA,93545
Michel,Grant,(625) 207-7950,(596) 067-3100,(176) 298-6269,67321 West Siam St.,Santa Monica,CA,93562
Eloy,Futrell,(488) 435-3261,(122) 139-3664,(363) 653-4046,1715 Scott Dr,Santa Fe,CA,93584
Charity,Bose,(047) 282-9926,(420) 709-7903,(521) 249-1686,67321 West Siam St.,Kansas City,CA,93591
Roscoe,Plotkin,(855) 796-1551,(298) 065-3855,(918) 972-2318,9 IBM Path,San Jose,CA,93601
Sheri,Bucci,(553) 251-3995,(477) 245-3893,(585) 472-5304,48920 San Carlos,San Jose,CA,93604
Branden,Chace,(321) 516-3687,(640) 907-8707,(328) 057-7550,48920 San Carlos,St. Petersburg,CA,93606
Dick,Ferretti,(730) 535-4935,(655) 385-7095,(130) 256-8466,67321 West Siam St.,Denver,CA,93608
Victor,Mars,(296) 239-5235,(552) 304-9643,(594) 810-4662,1715 Scott Dr,Ohio,CA,93609
Jeffrey,Winsett,(584) 075-0793,(370) 730-2657,(060) 887-2758,67321 West Siam St.,Denver,CA,93610
Royal,Zerangue,(803) 874-5002,(576) 356-5953,(704) 176-0878,123 Anywhere Street,Los Angeles,CA,93615
Carlos,Bowman,(188) 558-4048,(472) 262-9660,(026) 233-5012,345 Sugar Blvd.,Alabama,CA,93616
Cindy,Tumlin,(985) 765-5023,(642) 535-5359,(588) 894-3826,777 West Filmore,St. Petersburg,CA,93618
Manuel,Carle,(166) 355-9373,(678) 840-8366,(035) 403-4768,111 Silicon Valley Road,Persistance,CA,93620
Derek,Ebeling,(300) 024-4871,(405) 072-5563,(079) 474-5892,345 Sugar Blvd.,Los Angeles,CA,93621
Antonia,Schoonover,(447) 693-6869,(921) 528-9205,(572) 327-4434,111 Silicon Valley Road,Sunnyvale,CA,93622
Hubert,Flowers,(981) 567-4730,(177) 743-1267,(468) 922-5267,123 Anywhere Street,Persistance,CA,93625
Kristine,Santoro,(498) 355-1170,(658) 686-1589,(062) 404-8232,321 University Ave.,Denver,CA,93628
Avis,Lentini,(499) 161-6379,(419) 325-3525,(676) 218-5147,111 Silicon Valley Road,Kansas City,CA,93630
Simon,Bushee,(462) 671-9003,(646) 502-5957,(158) 160-1074,9 IBM Path,St. Petersburg,CA,93637
Eddie,Hock,(365) 166-7819,(546) 459-1610,(873) 504-7406,123 Anywhere Street,Kansas City,CA,93638
Philip,Mangus,(224) 007-7295,(406) 890-4000,(975) 864-8608,999 Baker Way,San Jose,CA,93639
Hobert,Bertram,(869) 988-7447,(535) 874-2748,(677) 322-7310,67321 West Siam St.,Salt Lake City,CA,93640
Harriett,Wingate,(486) 621-7198,(777) 111-7386,(000) 681-7861,9 IBM Path,Salt Lake City,CA,93641
Jonathan,Roth,(740) 665-5488,(164) 337-2646,(578) 962-0218,1715 Scott Dr,Salt Lake City,CA,93646
Bonita,Neary,(080) 007-1126,(182) 221-8200,(538) 578-4645,321 University Ave.,Salt Lake City,CA,93647
Nichole,Argo,(945) 667-4728,(124) 172-2736,(526) 138-9792,321 University Ave.,Santa Monica,CA,93648
Dudley,Inouye,(683) 984-5315,(988) 250-1423,(262) 625-5262,1715 Scott Dr,Los Angeles,CA,93650
Candice,Cartwright,(198) 701-0414,(559) 744-8111,(387) 110-5441,999 Baker Way,Salt Lake City,CA,93652
Mina,Mrozek,(195) 065-5523,(293) 324-9652,(016) 371-0302,345 Sugar Blvd.,Kansas City,CA,93654
Valeria,Nipper,(856) 963-3730,(450) 844-1706,(824) 724-1637,1715 Scott Dr,Kansas City,CA,93656
Maryellen,Mendenhall,(753) 231-4444,(992) 241-3416,(242) 918-1764,999 Baker Way,Santa Fe,CA,93657
Chuck,Altieri,(164) 983-1378,(538) 503-0438,(584) 651-4903,999 Baker Way,Kansas City,CA,93660
Teodoro,Emrick,(878) 228-6411,(374) 241-8690,(548) 902-3370,111 Silicon Valley Road,Santa Fe,CA,93662
Peter,Bensen,(829) 229-2722,(458) 364-5938,(624) 713-7446,111 Silicon Valley Road,Sunnyvale,CA,93666
Elvis,Malick,(057) 338-3381,(154) 042-8855,(357) 601-9818,1715 Scott Dr,Salt Lake City,CA,93701
Lorna,Seagle,(687) 165-8676,(501) 305-7237,(944) 600-9482,9 IBM Path,Ohio,CA,93702
Damon,Cuellar,(341) 781-4555,(907) 164-1952,(413) 159-6788,9 IBM Path,Denver,CA,93703
Sanford,Parikh,(711) 769-2718,(999) 038-2765,(622) 467-9893,48920 San Carlos,Denver,CA,93705
Rhonda,Crary,(209) 936-7230,(421) 042-0800,(527) 154-1598,999 Baker Way,Los Angeles,CA,93706
Al,Balducci,(104) 432-0934,(082) 224-5808,(474) 669-6543,67321 West Siam St.,Alabama,CA,93710
Matilda,Heap,(430) 246-7443,(885) 991-9381,(973) 906-4671,9 IBM Path,Denver,CA,93721
Cynthia,Bogue,(914) 286-8039,(157) 574-1258,(269) 876-6616,9 IBM Path,Ohio,CA,93725
Lamar,Fraise,(263) 853-0285,(347) 298-1924,(920) 612-0762,777 West Filmore,Los Angeles,CA,93726
Doug,Obrian,(139) 872-0452,(778) 936-8179,(740) 506-8278,999 Baker Way,Denver,CA,93727
Santiago,Carpenter,(743) 231-5663,(868) 849-7620,(113) 196-8576,777 West Filmore,Santa Fe,CA,93728
Erasmo,Cogar,(605) 222-8017,(040) 891-6707,(795) 749-4466,345 Sugar Blvd.,Sunnyvale,CA,93745
Mandy,Bolling,(863) 527-2416,(692) 347-5361,(897) 813-3126,111 Silicon Valley Road,Ohio,CA,93755
Chris,Dilley,(234) 070-3084,(732) 856-9799,(092) 967-1991,1715 Scott Dr,San Francisco,CA,93790
Dominique,Titcomb,(894) 854-5972,(797) 678-2392,(076) 723-9484,111 Silicon Valley Road,Santa Fe,CA,93794
Bryant,Tapia,(879) 263-3256,(729) 118-1643,(145) 555-4621,345 Sugar Blvd.,Denver,CA,93944
Cathryn,Feaster,(452) 784-3496,(049) 159-3136,(945) 811-8795,345 Sugar Blvd.,San Mateo,CA,94309
Marilyn,Zermeno,(913) 479-7867,(260) 998-3860,(437) 406-7295,67321 West Siam St.,Sunnyvale,CA,94508
Hiram,Stephenson,(168) 237-3299,(276) 518-9050,(275) 298-8091,9 IBM Path,Sunnyvale,CA,94516
Felicia,Cate,(102) 819-0135,(278) 724-1817,(454) 190-6951,777 West Filmore,Salt Lake City,CA,94607
Katie,Hertzler,(810) 956-9178,(164) 124-2564,(197) 628-5599,9 IBM Path,Los Angeles,CA,94613
Neal,Lofton,(504) 968-6995,(723) 292-2707,(768) 952-3170,111 Silicon Valley Road,St. Petersburg,CA,94704
Nadia,Hedstrom,(823) 651-1143,(525) 999-9343,(261) 009-1105,321 University Ave.,Santa Monica,CA,94720
Scottie,Norden,(920) 708-9380,(745) 800-6155,(539) 184-2381,345 Sugar Blvd.,San Francisco,CA,94922
Ty,Girouard,(238) 921-7316,(025) 184-1784,(721) 544-0697,123 Anywhere Street,Persistance,CA,94924
Stephen,Gosney,(179) 106-4587,(164) 317-7768,(625) 583-8839,999 Baker Way,San Francisco,CA,94940
Numbers,Labarge,(330) 851-9526,(246) 352-5698,(859) 518-4127,9 IBM Path,Sunnyvale,CA,95064
Wally,Gulley,(272) 614-0640,(799) 839-2437,(875) 445-8135,777 West Filmore,Sunnyvale,CA,95075
Teddy,Carrion,(769) 960-7763,(117) 699-2696,(176) 506-0246,777 West Filmore,Alabama,CA,95202
Tamara,Chancellor,(510) 617-9962,(782) 545-8470,(489) 789-4750,1715 Scott Dr,Santa Fe,CA,95205
Eduardo,Featherstone,(393) 905-3146,(364) 001-3151,(114) 748-9314,777 West Filmore,Denver,CA,95210
Sam,Sansone,(615) 429-7100,(729) 689-6532,(153) 852-3990,345 Sugar Blvd.,Denver,CA,95221
Rosalie,Bonnett,(197) 655-6983,(915) 051-0586,(974) 924-4166,777 West Filmore,Kansas City,CA,95248
Christopher,Suitt,(553) 455-5430,(636) 228-9648,(804) 806-4978,999 Baker Way,Cupertino,CA,95253
Kelley,Vida,(016) 644-0257,(170) 075-3032,(474) 796-8063,321 University Ave.,Denver,CA,95257
Marcelo,Diego,(757) 654-3712,(923) 290-8218,(346) 282-4007,777 West Filmore,San Francisco,CA,95303
Mallory,Crosier,(239) 706-1782,(713) 465-4374,(440) 767-8470,48920 San Carlos,Cupertino,CA,95305
Shaun,Minter,(376) 607-1973,(121) 207-7277,(203) 177-4023,1715 Scott Dr,Santa Fe,CA,95309
Clay,Client,(638) 673-9861,(378) 129-8253,(302) 275-7472,67321 West Siam St.,Santa Fe,CA,95310
Jamel,Frankel,(903) 214-2001,(020) 464-1338,(460) 042-1698,111 Silicon Valley Road,Cupertino,CA,95312
Devon,Klima,(464) 094-1974,(383) 302-0545,(670) 758-9209,123 Anywhere Street,Sunnyvale,CA,95313
Winfred,Marcantel,(359) 396-4047,(144) 802-4647,(372) 788-3713,67321 West Siam St.,Sunnyvale,CA,95319
Olin,Blum,(553) 021-6332,(832) 994-1050,(770) 971-5192,67321 West Siam St.,St. Petersburg,CA,95327
Selma,Wysong,(685) 817-0993,(012) 670-3765,(668) 992-7666,345 Sugar Blvd.,Sunnyvale,CA,95328
Nestor,Ellman,(649) 570-0115,(920) 940-4279,(324) 854-8217,123 Anywhere Street,San Jose,CA,95333
Hugh,Brickner,(096) 866-1291,(877) 026-1885,(772) 305-9977,1715 Scott Dr,Alabama,CA,95334
Katelyn,Gregson,(236) 070-9289,(265) 361-0391,(120) 002-7361,1715 Scott Dr,Denver,CA,95338
Dave,Poteet,(183) 346-3757,(813) 158-2984,(415) 556-7155,111 Silicon Valley Road,Santa Monica,CA,95340
Ruth,Fawcett,(452) 904-5274,(973) 860-0599,(998) 626-1787,1715 Scott Dr,Ohio,CA,95341
Bennie,Laufer,(698) 764-9340,(328) 719-4377,(017) 089-1322,321 University Ave.,Los Angeles,CA,95348
Jan,Raphael,(576) 556-1822,(686) 284-3976,(915) 799-1223,67321 West Siam St.,San Mateo,CA,95351
Johnathon,Cortinas,(488) 617-6836,(325) 928-0098,(048) 013-0544,111 Silicon Valley Road,San Jose,CA,95353
Ferdinand,Etchison,(987) 972-7874,(582) 667-9145,(759) 679-3594,345 Sugar Blvd.,Cupertino,CA,95358
Rod,Lamons,(138) 610-4027,(186) 279-6215,(779) 426-2138,67321 West Siam St.,Santa Fe,CA,95365
Vito,Koerner,(095) 325-9856,(030) 652-7650,(086) 490-3546,67321 West Siam St.,Salt Lake City,CA,95374
Leonor,Pedrick,(702) 967-1108,(785) 399-5994,(638) 392-7964,777 West Filmore,Kansas City,CA,95379
Mollie,Higdon,(744) 788-3732,(949) 295-4934,(765) 503-0626,321 University Ave.,St. Petersburg,CA,95380
Gregg,Toles,(310) 017-7433,(136) 037-9867,(008) 130-5633,111 Silicon Valley Road,Sunnyvale,CA,95383
Wes,Ashbrook,(108) 657-3725,(843) 840-1260,(243) 572-7122,48920 San Carlos,Cupertino,CA,95385
Carolyn,Knights,(863) 683-1466,(512) 549-4902,(206) 944-6057,321 University Ave.,San Francisco,CA,95386
Christina,Hunger,(597) 381-9146,(425) 525-6022,(543) 079-5690,67321 West Siam St.,Cupertino,CA,95388
Kenneth,Fannin,(050) 201-8005,(802) 595-4115,(045) 776-6007,111 Silicon Valley Road,Cupertino,CA,95410
Junior,Hawn,(446) 713-4469,(798) 551-9067,(117) 923-4575,999 Baker Way,Kansas City,CA,95412
Gabriel,Friar,(399) 258-3788,(429) 507-4159,(194) 959-1684,777 West Filmore,Santa Monica,CA,95420
Homer,Saver,(684) 560-8971,(193) 312-4120,(732) 295-2676,345 Sugar Blvd.,Ohio,CA,95422
Fabian,Poor,(906) 044-2027,(015) 014-6400,(413) 230-0595,321 University Ave.,Persistance,CA,95423
Bridgett,Townley,(982) 927-9724,(356) 711-5325,(415) 492-7756,48920 San Carlos,Sunnyvale,CA,95424
Gail,Flannery,(417) 441-1136,(146) 087-8601,(404) 568-4040,1715 Scott Dr,San Mateo,CA,95428
Scot,Burr,(371) 220-1273,(495) 198-7163,(499) 451-5476,67321 West Siam St.,Salt Lake City,CA,95432
Vickie,Sowards,(636) 932-2152,(229) 604-5029,(060) 119-3648,777 West Filmore,Persistance,CA,95437
Leopoldo,Reed,(524) 975-2328,(131) 552-8224,(058) 408-1257,9 IBM Path,St. Petersburg,CA,95454
Estela,Minks,(370) 073-6124,(713) 894-1971,(904) 113-9101,999 Baker Way,San Francisco,CA,95456
Ingrid,Sparling,(243) 467-5421,(881) 220-8680,(240) 542-4478,67321 West Siam St.,Sunnyvale,CA,95458
Josue,Labrecque,(154) 484-5263,(836) 190-2924,(873) 931-1016,1715 Scott Dr,Denver,CA,95460
Barton,Mccaslin,(643) 052-2002,(625) 330-6362,(339) 766-3465,777 West Filmore,San Jose,CA,95462
Rosemarie,Percival,(539) 445-5133,(491) 569-5334,(122) 648-5390,777 West Filmore,Santa Monica,CA,95464
Fay,Stinnett,(528) 851-6246,(869) 071-1305,(765) 673-4702,123 Anywhere Street,San Francisco,CA,95468
Jerald,Bulluck,(115) 813-6378,(267) 535-5978,(818) 337-7172,345 Sugar Blvd.,St. Petersburg,CA,95480
George,Whitmire,(384) 264-1502,(820) 878-7442,(675) 853-1920,48920 San Carlos,San Jose,CA,95481
Domenic,Bangert,(237) 567-7719,(543) 656-7350,(655) 178-4956,999 Baker Way,Santa Fe,CA,95485
Hallie,Pichardo,(993) 277-8054,(300) 427-2007,(822) 308-4250,321 University Ave.,St. Petersburg,CA,95488
Taylor,Peake,(035) 452-6409,(975) 474-6679,(435) 660-1333,777 West Filmore,Persistance,CA,95490
Lazaro,Kliebert,(544) 518-6414,(162) 470-9255,(417) 678-6060,1715 Scott Dr,San Mateo,CA,95501
Marcos,Willsey,(835) 258-2539,(582) 469-3398,(652) 236-7555,321 University Ave.,Denver,CA,95502
Parker,Crunk,(380) 405-4548,(438) 550-7125,(267) 821-6437,999 Baker Way,Salt Lake City,CA,95518
Krista,Florence,(447) 084-0657,(666) 648-2049,(861) 506-1104,345 Sugar Blvd.,Salt Lake City,CA,95521
Eloy,Siniard,(418) 700-4760,(415) 011-4439,(718) 662-7555,777 West Filmore,Kansas City,CA,95524
Margery,Desouza,(113) 274-2527,(768) 937-2995,(872) 608-9241,111 Silicon Valley Road,Denver,CA,95525
Patti,Halligan,(159) 282-9676,(766) 618-8700,(935) 279-1670,999 Baker Way,Cupertino,CA,95526
Christina,Lawhon,(757) 560-7868,(842) 148-5764,(143) 976-6797,9 IBM Path,San Mateo,CA,95527
Josh,Papenfuss,(018) 249-4709,(037) 645-5802,(393) 327-7800,321 University Ave.,Alabama,CA,95531
Malinda,Varghese,(888) 817-8002,(350) 413-2800,(303) 599-2247,999 Baker Way,San Francisco,CA,95537
Emilie,Banister,(393) 601-1036,(808) 267-4571,(617) 262-1383,9 IBM Path,Kansas City,CA,95542
Edison,Rockey,(417) 406-5119,(501) 022-3720,(130) 435-6930,67321 West Siam St.,Alabama,CA,95546
Estelle,Mccallister,(470) 999-2353,(836) 050-6691,(884) 295-6917,777 West Filmore,Cupertino,CA,95548
Burton,Dial,(247) 924-5360,(980) 661-1269,(029) 855-2496,111 Silicon Valley Road,Persistance,CA,95552
Wendy,Hearon,(605) 855-6949,(523) 231-9377,(310) 281-8476,123 Anywhere Street,Alabama,CA,95553
Wendy,Elwood,(019) 187-6619,(847) 554-5914,(132) 512-8221,777 West Filmore,Sunnyvale,CA,95555
Lesa,Mclachlan,(111) 530-2302,(281) 741-3971,(245) 606-6400,111 Silicon Valley Road,Ohio,CA,95556
Berry,Louviere,(769) 650-0740,(870) 213-9059,(892) 171-2677,321 University Ave.,Cupertino,CA,95560
Evangeline,Orzechowski,(351) 673-1014,(594) 932-3184,(379) 739-1072,9 IBM Path,Santa Monica,CA,95562
Jordan,Mooneyham,(496) 568-5117,(438) 588-9724,(634) 810-2068,67321 West Siam St.,Persistance,CA,95563
Sheri,Heller,(981) 031-4924,(115) 584-9721,(249) 102-8711,1715 Scott Dr,Salt Lake City,CA,95564
Waldo,Parra,(409) 624-2351,(221) 822-4021,(395) 166-4865,48920 San Carlos,Sunnyvale,CA,95567
Briana,Gimenez,(305) 560-7325,(027) 160-0275,(315) 591-6418,48920 San Carlos,St. Petersburg,CA,95573
Jimmie,Lamson,(404) 216-7415,(072) 163-8800,(047) 322-6109,48920 San Carlos,Santa Fe,CA,95589
Claud,Mayle,(258) 189-2803,(165) 505-4611,(467) 313-9509,111 Silicon Valley Road,Los Angeles,CA,95595
Angelo,Mcmillon,(774) 904-9011,(864) 039-4834,(092) 301-0839,123 Anywhere Street,San Jose,CA,95605
Donna,Bible,(265) 004-3110,(579) 720-7847,(915) 191-8394,48920 San Carlos,Santa Fe,CA,95613
Herschel,Medina,(850) 721-4478,(043) 482-5951,(727) 176-3835,9 IBM Path,Cupertino,CA,95615
Margarita,Jessup,(162) 704-4395,(799) 230-9711,(144) 840-3664,9 IBM Path,Santa Monica,CA,95616
Roberta,Darosa,(098) 865-6402,(686) 769-8196,(181) 456-3263,1715 Scott Dr,San Jose,CA,95675
Boyd,Froelich,(337) 832-1417,(195) 835-1769,(607) 786-2583,9 IBM Path,San Francisco,CA,95676
Rodger,Constable,(955) 729-0095,(303) 836-6838,(376) 218-9431,48920 San Carlos,San Francisco,CA,95715
Alejandro,Teran,(650) 932-0392,(050) 574-4257,(305) 981-6166,321 University Ave.,San Francisco,CA,95800
Sal,Jaffe,(396) 674-1144,(627) 631-9258,(637) 898-0781,123 Anywhere Street,Ohio,CA,95815
Pedro,Mandell,(252) 274-2977,(980) 034-6691,(758) 923-6991,321 University Ave.,Cupertino,CA,95817
Megan,Halford,(681) 806-4056,(643) 952-1620,(531) 770-0648,777 West Filmore,Persistance,CA,95824
Adolfo,Alexander,(100) 995-2749,(405) 932-5664,(032) 704-4928,9 IBM Path,St. Petersburg,CA,95832
Margie,Lord,(866) 200-9918,(667) 616-4480,(487) 460-8008,123 Anywhere Street,Ohio,CA,95838
Michelle,Lunsford,(601) 891-0745,(765) 117-9465,(637) 197-9962,999 Baker Way,Kansas City,CA,95901
Gina,Insley,(813) 453-9134,(701) 138-9431,(644) 690-5591,345 Sugar Blvd.,St. Petersburg,CA,95912
Genaro,Westervelt,(159) 015-2357,(922) 452-7210,(398) 183-4321,321 University Ave.,Persistance,CA,95913
Earlene,Macon,(214) 954-7674,(536) 960-3220,(689) 409-4065,345 Sugar Blvd.,Persistance,CA,95916
Letitia,Mccumber,(346) 656-2176,(905) 078-1834,(754) 195-6756,777 West Filmore,Sunnyvale,CA,95917
Preston,Nitz,(700) 388-9522,(328) 974-5866,(604) 624-0465,999 Baker Way,Denver,CA,95922
Terri,Ives,(158) 533-5966,(606) 206-7646,(309) 260-1821,345 Sugar Blvd.,Kansas City,CA,95925
Kerri,Borgen,(774) 501-0327,(224) 612-9285,(398) 856-5568,9 IBM Path,San Francisco,CA,95926
Dewey,Carpentier,(284) 395-9325,(601) 827-4670,(098) 928-4814,111 Silicon Valley Road,Santa Fe,CA,95927
Isabelle,Bandy,(225) 304-9986,(515) 261-4363,(390) 763-7463,345 Sugar Blvd.,Salt Lake City,CA,95928
Gale,Stowers,(609) 265-5546,(949) 110-3548,(271) 580-6315,321 University Ave.,Salt Lake City,CA,95930
Lucius,Duran,(861) 958-8308,(501) 586-1504,(127) 531-1911,9 IBM Path,Santa Monica,CA,95934
Trey,Lunt,(969) 036-5058,(409) 711-9328,(255) 525-6858,9 IBM Path,Persistance,CA,95936
Hope,Hurlbut,(807) 642-7484,(440) 796-5977,(034) 797-6395,48920 San Carlos,Kansas City,CA,95939
Arlen,Ditch,(855) 160-8527,(520) 516-6302,(137) 794-8243,777 West Filmore,Sunnyvale,CA,95941
Darell,Olds,(969) 351-9900,(198) 273-2221,(228) 601-4028,67321 West Siam St.,Persistance,CA,95943
Cathryn,Symons,(139) 897-2003,(771) 685-7139,(850) 908-0518,9 IBM Path,Kansas City,CA,95947
Rosemarie,Fitzmaurice,(438) 152-6697,(748) 453-6655,(985) 894-1676,111 Silicon Valley Road,Salt Lake City,CA,95948
Eve,Bernardi,(715) 115-1344,(619) 819-5670,(610) 378-4924,777 West Filmore,Santa Fe,CA,95953
Ronald,Bouie,(788) 743-2489,(140) 831-9951,(107) 821-8376,321 University Ave.,Santa Fe,CA,95957
Jere,Pyne,(149) 298-4175,(040) 672-3180,(147) 890-7354,123 Anywhere Street,Ohio,CA,95960
Quinton,Schmeling,(382) 802-5019,(274) 292-1135,(278) 146-1072,67321 West Siam St.,St. Petersburg,CA,95961
Jasmine,Dragoo,(600) 313-5061,(134) 067-7879,(917) 999-7428,777 West Filmore,Ohio,CA,95962
Jodi,Mcmakin,(469) 761-0575,(393) 223-3599,(037) 723-4790,9 IBM Path,Los Angeles,CA,95963
Philip,Spiegel,(476) 166-9367,(336) 325-8512,(972) 245-3013,777 West Filmore,Persistance,CA,95965
Amie,Rembert,(505) 575-8992,(134) 030-4878,(270) 398-6799,123 Anywhere Street,Los Angeles,CA,95968
Valentin,Whitney,(356) 668-8552,(108) 094-9182,(723) 535-2252,777 West Filmore,Salt Lake City,CA,95971
Adrian,Northrop,(794) 155-2789,(881) 761-1017,(444) 102-9510,9 IBM Path,Cupertino,CA,95988
Jaclyn,Roles,(337) 746-3818,(335) 741-1779,(562) 853-6101,48920 San Carlos,Los Angeles,CA,95992
Katy,Hickson,(725) 066-4367,(541) 789-6079,(575) 815-2658,321 University Ave.,Persistance,CA,96002
Brice,Lemke,(296) 943-2174,(510) 148-4977,(655) 892-0889,9 IBM Path,Santa Fe,CA,96007
Frederick,Braxton,(338) 773-2354,(498) 603-8363,(203) 671-4766,48920 San Carlos,San Jose,CA,96010
Angie,Sites,(394) 347-9305,(221) 242-5660,(396) 925-6814,9 IBM Path,Los Angeles,CA,96015
Rachel,Badilla,(238) 513-9684,(651) 244-1588,(846) 124-7589,48920 San Carlos,Salt Lake City,CA,96017
Debra,Royer,(969) 009-1771,(873) 660-7556,(354) 526-8910,9 IBM Path,Kansas City,CA,96019
Cornelia,Roselli,(317) 617-9378,(302) 217-7386,(118) 074-9437,777 West Filmore,Persistance,CA,96021
Hilary,Huerta,(085) 343-6457,(525) 038-0326,(144) 506-2935,67321 West Siam St.,San Mateo,CA,96023
Kristine,Bianchi,(790) 163-3510,(391) 874-5523,(220) 224-1441,321 University Ave.,Sunnyvale,CA,96024
Caleb,Frampton,(595) 913-1386,(428) 406-1721,(251) 091-0303,48920 San Carlos,Cupertino,CA,96025
Oscar,Cavitt,(519) 868-8925,(608) 492-2798,(239) 618-0288,123 Anywhere Street,Salt Lake City,CA,96027
Ramiro,Harold,(348) 522-4377,(002) 649-9190,(996) 462-4776,777 West Filmore,Salt Lake City,CA,96028
Evelyn,Tevis,(904) 261-2667,(896) 575-0100,(175) 271-4558,67321 West Siam St.,Ohio,CA,96035
Bernadine,Swan,(786) 128-2580,(452) 919-3757,(189) 850-2148,67321 West Siam St.,Ohio,CA,96038
Clint,Kahler,(085) 174-5596,(142) 523-9710,(219) 536-0063,999 Baker Way,San Mateo,CA,96039
Kelsey,Burrage,(898) 931-5258,(244) 902-1243,(275) 911-0259,777 West Filmore,Alabama,CA,96040
Pamala,Warnke,(963) 575-4505,(213) 108-1425,(470) 009-6041,111 Silicon Valley Road,Ohio,CA,96041
Quentin,Keel,(082) 017-3663,(235) 355-8565,(013) 977-1823,67321 West Siam St.,San Francisco,CA,96048
Keith,Laforge,(245) 057-2009,(857) 313-0204,(732) 105-4075,123 Anywhere Street,Santa Fe,CA,96051
Israel,Rafferty,(572) 884-3441,(958) 983-5114,(728) 968-8148,9 IBM Path,Santa Fe,CA,96052
Erika,Chavarria,(350) 898-6907,(947) 400-3228,(446) 533-0480,9 IBM Path,Los Angeles,CA,96056
Arthur,Sasser,(799) 153-1815,(635) 246-7516,(928) 688-6980,9 IBM Path,Denver,CA,96057
Philip,Firth,(921) 346-9036,(923) 146-0817,(522) 040-9238,1715 Scott Dr,Santa Fe,CA,96058
Ernest,Sikes,(767) 771-5401,(510) 217-3411,(211) 895-1491,345 Sugar Blvd.,Santa Monica,CA,96062
Hugh,Mckenney,(551) 024-8963,(821) 173-7378,(385) 912-8622,1715 Scott Dr,Los Angeles,CA,96064
Hayden,Darwin,(895) 984-6094,(633) 520-4238,(397) 807-4711,999 Baker Way,Sunnyvale,CA,96065
Kelley,Shorts,(450) 019-6259,(445) 905-3953,(962) 661-7331,345 Sugar Blvd.,Santa Monica,CA,96067
Stuart,Amado,(391) 715-0469,(718) 234-2611,(957) 557-7321,48920 San Carlos,Cupertino,CA,96071
Carson,Fullen,(083) 776-9636,(697) 406-9603,(854) 444-1111,345 Sugar Blvd.,Alabama,CA,96075
Adrienne,Degnan,(587) 627-3797,(422) 428-7850,(348) 160-0341,1715 Scott Dr,Los Angeles,CA,90001
Nadine,Poindexter,(822) 883-4953,(889) 168-2232,(765) 632-8198,48920 San Carlos,Santa Fe,CA,90002
Theodore,Dane,(782) 939-5130,(438) 871-8432,(981) 367-9449,123 Anywhere Street,Santa Fe,CA,90003
Rosella,Axelson,(732) 864-9055,(163) 652-9989,(784) 538-9392,9 IBM Path,Cupertino,CA,90005
Theron,Nelms,(429) 858-7313,(177) 333-0904,(208) 118-4488,777 West Filmore,Salt Lake City,CA,90006
Ernesto,Warr,(156) 718-2277,(150) 850-9755,(071) 173-4447,111 Silicon Valley Road,Los Angeles,CA,90007
Dee,Langer,(541) 518-2913,(342) 304-1521,(833) 492-1061,48920 San Carlos,Salt Lake City,CA,90011
Ralph,Carlino,(602) 363-4258,(665) 718-7209,(916) 921-1010,111 Silicon Valley Road,San Mateo,CA,90012
Carmella,Kemble,(820) 150-5208,(219) 217-0963,(085) 210-3124,111 Silicon Valley Road,St. Petersburg,CA,90013
Minerva,Carolina,(171) 363-2483,(592) 305-0697,(530) 655-5702,48920 San Carlos,Santa Fe,CA,90014
Gail,Roa,(447) 111-8336,(273) 822-8068,(940) 671-2770,9 IBM Path,San Jose,CA,90015
Alta,Kerwin,(993) 010-5890,(142) 000-0359,(680) 840-0245,345 Sugar Blvd.,Denver,CA,90017
Myles,Sterrett,(284) 366-1111,(438) 321-6469,(484) 548-5964,345 Sugar Blvd.,San Jose,CA,90018
Jordan,Whitt,(617) 350-6962,(106) 322-5676,(216) 454-8948,123 Anywhere Street,Alabama,CA,90020-0001
Selma,Wormley,(319) 764-4485,(900) 188-3827,(212) 220-8842,321 University Ave.,Cupertino,CA,90021
Zelda,Mann,(413) 226-4028,(371) 530-4054,(328) 987-4214,9 IBM Path,San Jose,CA,90028
Edwardo,Linhart,(794) 264-4916,(962) 537-7542,(652) 181-0349,1715 Scott Dr,Santa Fe,CA,90029
Abram,Sorrels,(679) 923-3078,(028) 013-4434,(302) 458-2517,9 IBM Path,Salt Lake City,CA,90031
Dane,Swallow,(955) 946-5215,(661) 756-7200,(029) 817-8339,9 IBM Path,Alabama,CA,90033
Herb,Stoll,(261) 411-5453,(195) 899-6978,(558) 531-8607,48920 San Carlos,San Mateo,CA,90037
Kelley,Larrick,(209) 485-0554,(623) 590-7759,(978) 688-6195,9 IBM Path,Sunnyvale,CA,90038
Lidia,Troxler,(554) 012-2024,(987) 990-1372,(053) 581-1475,67321 West Siam St.,Sunnyvale,CA,90044
Kristie,Fleming,(959) 993-5689,(105) 779-9268,(148) 797-3285,111 Silicon Valley Road,San Mateo,CA,90055
Christian,Leavens,(906) 020-4056,(827) 227-3482,(646) 981-1231,1715 Scott Dr,Denver,CA,90057
Connie,Fishman,(522) 245-6460,(802) 313-1159,(646) 681-5436,999 Baker Way,Sunnyvale,CA,90058
Camilla,Urbanski,(463) 364-3319,(810) 811-0087,(196) 762-7596,67321 West Siam St.,Santa Fe,CA,90059
Wally,Husby,(865) 491-3316,(863) 282-8355,(736) 633-1534,321 University Ave.,Salt Lake City,CA,90062
Nickolas,Velasco,(859) 755-3540,(906) 041-9564,(621) 123-9410,9 IBM Path,San Mateo,CA,90070
Brandi,Severson,(758) 674-7711,(648) 915-9308,(852) 193-0328,123 Anywhere Street,San Mateo,CA,90078
Granville,Cuevas,(310) 210-5600,(288) 708-1438,(828) 611-4383,67321 West Siam St.,Persistance,CA,90089
Rhea,Jefcoat,(439) 340-4185,(367) 926-3964,(528) 339-6520,999 Baker Way,San Jose,CA,90093
John,Desousa,(822) 441-0214,(441) 695-2941,(168) 007-2464,1715 Scott Dr,San Jose,CA,90263
Genaro,Cousins,(231) 926-9013,(067) 140-1479,(641) 870-5777,321 University Ave.,Sunnyvale,CA,90310
Nathan,Yee,(115) 085-9839,(511) 376-1095,(623) 759-8406,1715 Scott Dr,Santa Monica,CA,90408
Earlene,Manns,(996) 600-5133,(961) 503-9038,(060) 977-1453,9 IBM Path,Kansas City,CA,90813
Faye,Graybill,(928) 135-8358,(820) 908-1317,(556) 215-3877,345 Sugar Blvd.,Alabama,CA,91114
Myles,Tamplin,(499) 716-3544,(909) 705-3326,(012) 668-1184,777 West Filmore,Alabama,CA,91125
Elsa,Carmona,(784) 323-3143,(764) 948-5943,(681) 608-8436,777 West Filmore,Kansas City,CA,91205
Guadalupe,Feemster,(186) 414-2211,(878) 241-5030,(593) 413-3513,777 West Filmore,Alabama,CA,91305
Milton,Hug,(228) 131-5180,(653) 751-8796,(934) 291-1645,777 West Filmore,Ohio,CA,91330
Laurence,Cheng,(086) 816-6839,(099) 244-5443,(534) 882-0424,9 IBM Path,San Mateo,CA,91603
Charmaine,Jenning,(362) 327-7575,(637) 726-3982,(787) 206-6425,9 IBM Path,Denver,CA,91733
Casandra,Lung,(649) 658-7938,(406) 409-7423,(674) 046-0599,999 Baker Way,San Francisco,CA,91755
Shari,Ruffner,(064) 589-4611,(935) 116-0828,(980) 474-6169,67321 West Siam St.,Santa Fe,CA,91770
Jimmie,Curry,(327) 111-3094,(122) 425-7313,(326) 321-0865,111 Silicon Valley Road,St. Petersburg,CA,91776
Jeanine,Kula,(086) 399-9539,(981) 840-7908,(931) 190-6505,48920 San Carlos,Salt Lake City,CA,91785
Anastasia,Delosreyes,(736) 413-2026,(854) 907-1294,(773) 831-3571,321 University Ave.,Cupertino,CA,91934
Rhonda,Mckee,(081) 547-8300,(048) 688-2987,(521) 088-5581,321 University Ave.,Persistance,CA,91963
Charles,Sisneros,(486) 725-9234,(859) 785-1149,(369) 284-9601,999 Baker Way,Ohio,CA,91980
Lenny,Guillotte,(153) 560-9978,(649) 038-8113,(047) 792-7156,1715 Scott Dr,Salt Lake City,CA,92105
Dorothy,Grosz,(703) 774-6996,(472) 587-6132,(650) 829-6343,345 Sugar Blvd.,Alabama,CA,92112
Rosendo,Markowitz,(835) 008-8659,(848) 067-8091,(043) 317-9409,777 West Filmore,Kansas City,CA,92113
Benito,Monge,(017) 400-0084,(419) 597-9420,(305) 459-3448,1715 Scott Dr,San Francisco,CA,92162
Stella,Bunting,(651) 863-0868,(513) 830-0955,(638) 052-6329,321 University Ave.,Cupertino,CA,92173
Victoria,Principato,(788) 410-9531,(669) 176-8202,(141) 877-4411,111 Silicon Valley Road,Persistance,CA,92202
Shannon,Bays,(345) 874-8658,(467) 153-1294,(705) 274-3391,111 Silicon Valley Road,Santa Monica,CA,92203
Marylou,Dominguez,(963) 536-3261,(901) 521-1847,(746) 734-9592,321 University Ave.,San Jose,CA,92225
Chris,Carnevale,(197) 204-8141,(213) 485-5067,(134) 782-2667,9 IBM Path,Salt Lake City,CA,92227
Lorenzo,Keech,(461) 682-8843,(426) 558-2927,(412) 530-3605,777 West Filmore,San Jose,CA,92230
Greta,Carreras,(812) 780-1243,(525) 388-9881,(219) 315-7156,123 Anywhere Street,Ohio,CA,92231
Gerald,Eliason,(197) 592-6577,(078) 556-3026,(026) 216-6495,777 West Filmore,Santa Fe,CA,92232
Cecil,Freel,(604) 066-4954,(189) 345-9345,(973) 097-5121,999 Baker Way,Salt Lake City,CA,92233
Alissa,Villanueva,(873) 491-2135,(395) 305-4472,(009) 715-2548,111 Silicon Valley Road,Los Angeles,CA,92236
Opal,Remick,(137) 483-6528,(199) 284-7327,(682) 624-3658,345 Sugar Blvd.,Salt Lake City,CA,92240
Harris,Brister,(399) 711-5567,(851) 062-6918,(304) 931-7734,123 Anywhere Street,Santa Fe,CA,92242
Barry,Mateer,(519) 647-8453,(581) 731-3206,(634) 062-8177,999 Baker Way,Ohio,CA,92243
Harley,Myler,(290) 371-7348,(229) 320-6596,(827) 514-5503,1715 Scott Dr,San Jose,CA,92249
Ignacio,Walt,(225) 356-5776,(480) 714-8634,(507) 047-1108,123 Anywhere Street,Ohio,CA,92250
Richie,Stpeter,(293) 706-9242,(802) 989-9978,(289) 772-5801,345 Sugar Blvd.,Persistance,CA,92252
Carissa,Miceli,(317) 650-3284,(764) 009-8980,(237) 471-8569,67321 West Siam St.,Salt Lake City,CA,92254
Marylou,Acklin,(592) 858-0593,(446) 732-1037,(710) 491-6146,1715 Scott Dr,Santa Fe,CA,92257
Orlando,Lupo,(886) 810-0831,(983) 429-8747,(716) 990-4247,321 University Ave.,Santa Fe,CA,92258
Shelia,Lane,(662) 481-1808,(933) 676-2995,(808) 281-5277,345 Sugar Blvd.,San Francisco,CA,92266
Leona,Tiggs,(000) 563-5206,(457) 204-5267,(052) 628-3225,1715 Scott Dr,Denver,CA,92273
Faith,Tuthill,(027) 477-8184,(029) 215-8444,(222) 888-1045,345 Sugar Blvd.,Kansas City,CA,92274
Cesar,Mcdermott,(194) 228-9628,(603) 589-0689,(882) 159-7534,345 Sugar Blvd.,St. Petersburg,CA,92275
Bridgett,Sisler,(238) 993-6953,(216) 569-1883,(410) 707-2680,48920 San Carlos,St. Petersburg,CA,92281
Ethan,Rodriquez,(785) 261-6070,(009) 412-4496,(831) 984-3556,111 Silicon Valley Road,Los Angeles,CA,92283
Adrienne,Flournoy,(673) 359-8102,(738) 794-4548,(577) 949-0804,345 Sugar Blvd.,Ohio,CA,92284
Robyn,Shepherd,(047) 258-3230,(655) 921-3075,(760) 327-7202,777 West Filmore,Ohio,CA,92285
Alexis,Woolard,(462) 487-1965,(417) 645-9428,(631) 115-4623,111 Silicon Valley Road,San Francisco,CA,92311
Coleman,Krell,(535) 969-5188,(638) 164-7674,(876) 555-4448,777 West Filmore,Cupertino,CA,92314
Patti,Willeford,(176) 639-4510,(406) 121-9613,(066) 941-3958,345 Sugar Blvd.,Denver,CA,92315
Kimberly,Mccowan,(368) 940-7423,(034) 483-7937,(861) 179-9585,111 Silicon Valley Road,Sunnyvale,CA,92321
Tracey,Langley,(473) 111-8303,(951) 893-7050,(381) 710-9919,9 IBM Path,Salt Lake City,CA,92341
Ward,Bustos,(868) 865-9741,(940) 903-4465,(822) 009-5137,777 West Filmore,San Mateo,CA,92347
Neville,Cropper,(439) 680-0231,(591) 900-9378,(701) 705-6614,777 West Filmore,San Mateo,CA,92356
Marcelino,Hafner,(434) 285-2557,(901) 327-0392,(562) 255-1279,777 West Filmore,Persistance,CA,92363
Louella,Harrah,(219) 656-0964,(637) 959-8150,(587) 540-8791,321 University Ave.,Los Angeles,CA,92365
Lacy,Heyer,(327) 993-3329,(677) 605-1212,(973) 031-5788,999 Baker Way,Sunnyvale,CA,92368
Irene,Morelock,(182) 882-0545,(949) 171-5627,(744) 283-1059,48920 San Carlos,St. Petersburg,CA,92386
Jan,Pressley,(701) 691-7963,(978) 725-5603,(111) 785-2316,48920 San Carlos,Santa Fe,CA,92401
Lavonne,Mckoy,(035) 341-1621,(877) 950-2449,(102) 429-6923,345 Sugar Blvd.,Denver,CA,92404
Garfield,Henrickson,(456) 925-5422,(843) 488-4431,(663) 473-2019,321 University Ave.,Kansas City,CA,92408
Jospeh,Eaddy,(947) 661-5793,(755) 196-6644,(920) 601-4556,1715 Scott Dr,St. Petersburg,CA,92410
Greta,Overby,(141) 706-8459,(003) 146-5085,(967) 642-8317,48920 San Carlos,Denver,CA,92411
Kris,Mastro,(896) 186-3765,(450) 021-5984,(096) 191-5595,111 Silicon Valley Road,St. Petersburg,CA,92515
Nettie,Prinz,(849) 849-4921,(128) 492-0073,(366) 303-7089,9 IBM Path,Santa Fe,CA,92543
Wade,Keasler,(305) 405-6372,(080) 078-6580,(548) 184-1638,123 Anywhere Street,Salt Lake City,CA,92548
Hai,Curnutt,(338) 725-2611,(646) 946-4404,(272) 487-7752,321 University Ave.,Kansas City,CA,92700
Galen,Lal,(652) 361-1317,(165) 423-7863,(822) 572-6699,67321 West Siam St.,Kansas City,CA,93016
Carmen,Raasch,(561) 797-4321,(568) 628-0757,(792) 670-4625,1715 Scott Dr,Persistance,CA,93032
Adele,Paras,(979) 660-0368,(446) 183-7057,(757) 058-0400,999 Baker Way,Alabama,CA,93107
Duncan,Leveille,(575) 233-5755,(062) 064-4238,(501) 572-6684,321 University Ave.,Salt Lake City,CA,93117
Whitney,Stines,(516) 250-9430,(852) 504-2641,(969) 457-1952,321 University Ave.,Alabama,CA,93150
Eldridge,Farren,(292) 935-0713,(572) 159-8784,(623) 676-5386,9 IBM Path,San Mateo,CA,93201
Hannah,Pickens,(627) 439-4596,(947) 736-6899,(773) 406-6464,123 Anywhere Street,San Jose,CA,93202
Rey,Mace,(684) 234-7214,(686) 543-9928,(773) 052-9701,345 Sugar Blvd.,St. Petersburg,CA,93203
James,Crooms,(949) 201-4253,(781) 905-3922,(867) 423-9462,67321 West Siam St.,Santa Monica,CA,93204
Marla,Adelman,(512) 673-0931,(143) 313-8651,(479) 683-6008,345 Sugar Blvd.,Cupertino,CA,93205
Jamison,Severin,(899) 220-2626,(405) 598-8488,(538) 210-7587,345 Sugar Blvd.,Ohio,CA,93206
Marcelo,Hodgson,(015) 790-0405,(836) 346-8645,(187) 405-5829,111 Silicon Valley Road,San Mateo,CA,93212
Antonia,Koga,(536) 975-1356,(195) 995-9308,(539) 242-0409,777 West Filmore,Kansas City,CA,93215
Sydney,Hairston,(658) 417-6870,(642) 100-0482,(338) 956-1941,48920 San Carlos,Kansas City,CA,93216
Angelica,Fred,(441) 519-3565,(682) 714-4202,(415) 216-7655,321 University Ave.,Alabama,CA,93218
Gracie,Forgey,(844) 296-8307,(902) 904-7125,(442) 837-9725,111 Silicon Valley Road,Salt Lake City,CA,93219
Kelsey,Klatt,(946) 113-7563,(881) 693-8236,(235) 069-5052,111 Silicon Valley Road,Denver,CA,93220
Marietta,Ripley,(194) 735-3385,(645) 701-2574,(747) 495-7296,9 IBM Path,Cupertino,CA,93221
Mattie,Curtiss,(111) 908-2883,(822) 319-3684,(495) 888-8218,48920 San Carlos,Santa Fe,CA,93223
Tuan,Routh,(972) 872-7435,(941) 397-0914,(218) 559-7992,111 Silicon Valley Road,Salt Lake City,CA,93227
Renee,Runyon,(031) 784-4780,(190) 691-1598,(875) 003-6148,1715 Scott Dr,St. Petersburg,CA,93234
Gaylord,Grayson,(198) 927-8533,(716) 513-2461,(433) 119-9847,999 Baker Way,Santa Fe,CA,93235
Queen,Prentice,(312) 185-1604,(331) 220-8109,(187) 758-1981,48920 San Carlos,San Mateo,CA,93239
Stacey,Rizzuto,(205) 428-3940,(308) 165-8025,(991) 790-5865,123 Anywhere Street,Santa Monica,CA,93240
Modesto,Spiers,(331) 755-2864,(404) 990-8130,(081) 727-4038,777 West Filmore,Santa Monica,CA,93241
Mauro,Blakemore,(739) 160-2378,(521) 716-3476,(696) 277-5446,345 Sugar Blvd.,San Mateo,CA,93244
Brittany,Hayner,(584) 797-3135,(045) 088-9270,(377) 346-1734,321 University Ave.,Salt Lake City,CA,93247
Elmer,Burgoon,(098) 915-1715,(000) 517-8277,(806) 319-4922,111 Silicon Valley Road,Salt Lake City,CA,93250
Curtis,Maglio,(861) 472-3836,(214) 870-2643,(516) 716-7628,111 Silicon Valley Road,Ohio,CA,93251
Liliana,Lemay,(221) 081-2743,(260) 592-6018,(803) 959-8265,345 Sugar Blvd.,Cupertino,CA,93256
Ben,Sandusky,(658) 972-0315,(720) 071-9268,(097) 325-5575,67321 West Siam St.,Cupertino,CA,93257
Roscoe,Bedwell,(843) 356-6952,(620) 046-4774,(838) 586-2972,777 West Filmore,Persistance,CA,93258
Teodoro,Lomas,(144) 795-3662,(830) 304-8126,(751) 464-0553,345 Sugar Blvd.,Denver,CA,93261
Lidia,Shell,(703) 979-6258,(597) 158-5946,(237) 120-2063,9 IBM Path,San Mateo,CA,93263
Jarod,Woodcock,(269) 690-4849,(615) 869-8338,(620) 379-2342,345 Sugar Blvd.,Santa Fe,CA,93266
Annabelle,Tirrell,(444) 892-0949,(913) 003-4597,(576) 761-2956,1715 Scott Dr,San Jose,CA,93267
Chandra,Craighead,(895) 029-7144,(623) 394-0662,(241) 398-7145,321 University Ave.,Denver,CA,93270
Winston,Brittingham,(633) 068-9124,(894) 613-6332,(591) 870-6705,123 Anywhere Street,Los Angeles,CA,93274
Jillian,Carpino,(290) 896-7494,(939) 535-5184,(502) 113-9944,9 IBM Path,Cupertino,CA,93280
Luis,Backer,(360) 988-8957,(393) 802-0678,(933) 767-5860,67321 West Siam St.,San Francisco,CA,93283
Anne,Sather,(357) 597-0376,(028) 105-3210,(873) 165-1598,67321 West Siam St.,Santa Fe,CA,93285
Branden,Sweatt,(044) 777-4848,(289) 621-3525,(512) 580-0007,1715 Scott Dr,Santa Fe,CA,93286
Mckinley,Ma,(164) 033-5947,(418) 334-1569,(953) 346-6724,67321 West Siam St.,Santa Monica,CA,93291
Ruthie,Stingley,(263) 636-8007,(167) 670-4294,(619) 871-2351,345 Sugar Blvd.,Santa Fe,CA,93301
Petra,Winer,(858) 766-4662,(158) 785-6268,(829) 261-3060,999 Baker Way,Santa Fe,CA,93304
Lila,Callicoat,(872) 632-0496,(850) 410-9604,(251) 617-0031,67321 West Siam St.,Alabama,CA,93305
Marlon,Okeefe,(882) 897-7204,(273) 198-2876,(201) 385-5636,999 Baker Way,San Francisco,CA,93307
Leticia,Mouzon,(620) 358-3206,(323) 187-1779,(400) 757-0683,48920 San Carlos,Kansas City,CA,93383
Lora,Cade,(710) 939-7460,(984) 503-5725,(925) 199-1518,999 Baker Way,Santa Fe,CA,93385
Winston,Vanhoose,(210) 120-9567,(416) 914-6780,(635) 527-6944,123 Anywhere Street,Santa Monica,CA,93387
Bonita,Arruda,(183) 485-0589,(756) 016-8380,(057) 501-2757,123 Anywhere Street,Persistance,CA,93401
Melinda,Pesina,(625) 862-9288,(198) 181-2999,(723) 837-1571,777 West Filmore,Persistance,CA,93405
Bennie,Derby,(428) 491-5349,(400) 100-6325,(506) 520-9538,67321 West Siam St.,Ohio,CA,93426
Earle,Granderson,(492) 840-9188,(717) 541-2430,(006) 641-7205,999 Baker Way,Sunnyvale,CA,93434
Terry,Dykstra,(570) 183-3549,(878) 552-7674,(265) 106-0117,345 Sugar Blvd.,San Mateo,CA,93458
Ursula,Farley,(333) 999-3358,(842) 079-0984,(307) 702-6086,999 Baker Way,San Mateo,CA,93501
William,Dishman,(830) 367-2336,(086) 309-8267,(681) 837-4530,67321 West Siam St.,Salt Lake City,CA,93516
Nina,Sangster,(516) 664-4592,(173) 651-6250,(846) 962-4944,9 IBM Path,Los Angeles,CA,93541
Rusty,Royse,(641) 472-7384,(976) 997-4056,(946) 825-1661,1715 Scott Dr,Kansas City,CA,93545
Reyna,Oliverio,(846) 396-1213,(611) 067-3370,(757) 679-1747,111 Silicon Valley Road,Cupertino,CA,93562
Antione,Chacko,(240) 224-8100,(026) 589-5641,(997) 073-1979,123 Anywhere Street,Denver,CA,93584
Jae,Ito,(078) 410-4922,(534) 252-5822,(611) 554-4721,321 University Ave.,San Jose,CA,93591
Marcellus,Gudino,(672) 325-8490,(675) 576-4087,(018) 412-4106,123 Anywhere Street,San Francisco,CA,93601
Jan,Steller,(078) 344-9915,(883) 282-4384,(766) 886-3431,48920 San Carlos,Salt Lake City,CA,93604
Cindy,Pierre,(890) 625-9547,(036) 253-6372,(052) 550-5151,321 University Ave.,Santa Fe,CA,93606
Shelby,Kirby,(830) 101-6547,(392) 064-9125,(565) 712-8388,777 West Filmore,St. Petersburg,CA,93608
Michale,Mak,(144) 554-2771,(606) 813-8783,(661) 028-3308,999 Baker Way,San Jose,CA,93609
Sofia,Lauver,(823) 013-6035,(750) 191-8492,(965) 046-1656,1715 Scott Dr,Persistance,CA,93610
Tamra,Friedman,(732) 925-9863,(478) 541-6179,(715) 891-0202,345 Sugar Blvd.,San Francisco,CA,93615
Delbert,Parsley,(184) 964-4863,(104) 008-5712,(279) 472-1672,123 Anywhere Street,Los Angeles,CA,93616
Joel,Cardella,(560) 138-1467,(481) 438-3709,(389) 612-8400,48920 San Carlos,Santa Fe,CA,93618
Cyril,Kavanagh,(162) 667-7950,(669) 602-1497,(045) 431-2269,321 University Ave.,Ohio,CA,93620
Leticia,Bolte,(013) 365-2319,(894) 672-9002,(872) 355-3173,123 Anywhere Street,San Francisco,CA,93621
Tonya,Rearick,(059) 241-5369,(335) 351-7544,(249) 887-1225,345 Sugar Blvd.,Kansas City,CA,93622
Mallory,Mccrary,(223) 786-6510,(939) 187-8283,(464) 944-5265,777 West Filmore,Denver,CA,93625
James,Franco,(075) 560-2775,(106) 317-1054,(256) 648-9548,999 Baker Way,Santa Monica,CA,93628
Abe,Bodiford,(097) 208-5911,(990) 350-8754,(434) 264-7703,67321 West Siam St.,Persistance,CA,93630
Reinaldo,Morse,(051) 007-4974,(947) 405-1319,(186) 651-3840,67321 West Siam St.,San Francisco,CA,93637
Shauna,Dicarlo,(878) 718-4715,(120) 265-9909,(375) 276-2805,1715 Scott Dr,Sunnyvale,CA,93638
Kirby,Vanfleet,(252) 883-4025,(237) 593-7087,(901) 370-2369,111 Silicon Valley Road,St. Petersburg,CA,93639
Winifred,Dorgan,(732) 829-8574,(616) 051-6267,(709) 776-4318,48920 San Carlos,San Jose,CA,93640
Angeline,Barnaby,(649) 455-6839,(429) 097-1051,(448) 187-6040,999 Baker Way,Ohio,CA,93641
Douglass,Eoff,(543) 156-6734,(911) 715-1874,(464) 701-3960,999 Baker Way,Ohio,CA,93646
Michael,Olmsted,(117) 613-4843,(903) 093-0167,(094) 507-8597,1715 Scott Dr,Santa Monica,CA,93647
Kurtis,Mcnees,(707) 305-0686,(673) 810-6271,(786) 795-4241,345 Sugar Blvd.,Denver,CA,93648
Hipolito,Mullican,(818) 637-7226,(719) 615-7423,(278) 914-5820,123 Anywhere Street,Denver,CA,93650
Lon,Keesler,(848) 670-6494,(063) 740-0867,(675) 541-4354,345 Sugar Blvd.,San Jose,CA,93652
Waylon,Bibby,(226) 173-7713,(095) 851-8785,(284) 552-6882,321 University Ave.,St. Petersburg,CA,93654
Jefferey,Bejarano,(732) 787-1111,(286) 872-2030,(760) 853-9743,67321 West Siam St.,Ohio,CA,93656
Marci,Lampkin,(879) 322-1753,(818) 391-8924,(189) 123-0158,345 Sugar Blvd.,St. Petersburg,CA,93657
Richard,Rigg,(491) 144-4490,(416) 116-0442,(817) 386-1895,67321 West Siam St.,Los Angeles,CA,93660
Kathrine,Brainerd,(959) 167-5317,(019) 472-5466,(701) 992-7935,111 Silicon Valley Road,San Mateo,CA,93662
Gerald,Bingaman,(774) 458-2129,(982) 390-6272,(933) 251-9544,1715 Scott Dr,Alabama,CA,93666
Rhoda,Boling,(528) 155-7805,(780) 833-2291,(416) 534-0453,321 University Ave.,Persistance,CA,93701
Julian,Macintyre,(578) 901-9767,(217) 815-5617,(204) 642-3940,67321 West Siam St.,San Jose,CA,93702
Isreal,Loyola,(029) 896-8603,(654) 286-6903,(079) 758-2316,1715 Scott Dr,Persistance,CA,93703
Cruz,Reisinger,(002) 252-2786,(983) 828-3632,(349) 229-8214,321 University Ave.,San Mateo,CA,93705
Carmela,Foley,(148) 264-8094,(181) 779-0161,(981) 968-8880,345 Sugar Blvd.,Santa Monica,CA,93706
Adalberto,Follmer,(441) 485-3999,(836) 514-3304,(361) 854-3171,345 Sugar Blvd.,Denver,CA,93710
Jonas,Goheen,(210) 650-5105,(839) 284-1381,(573) 147-3361,111 Silicon Valley Road,Denver,CA,93721
Beryl,Miranda,(938) 107-9880,(242) 376-0549,(874) 333-7785,321 University Ave.,Alabama,CA,93725
Cassie,Selders,(286) 157-6259,(556) 768-1036,(449) 171-4598,999 Baker Way,Denver,CA,93726
Jannie,Alberto,(250) 481-3051,(012) 439-0440,(193) 152-8616,48920 San Carlos,Santa Fe,CA,93727
Quinn,Criddle,(877) 440-4822,(630) 643-1376,(038) 179-9074,123 Anywhere Street,Salt Lake City,CA,93728
Liliana,Blood,(422) 384-3419,(152) 602-1800,(424) 441-7012,1715 Scott Dr,San Mateo,CA,93745
Margarito,Granberry,(611) 478-5470,(643) 398-8776,(969) 310-7317,9 IBM Path,Ohio,CA,93755
Derick,Bueno,(639) 932-4904,(746) 717-5273,(634) 408-1110,1715 Scott Dr,Los Angeles,CA,93790
Thanh,Konieczny,(861) 776-7318,(847) 183-8378,(521) 332-6869,345 Sugar Blvd.,Alabama,CA,93794
Monte,Batiste,(194) 995-0370,(474) 985-9683,(304) 606-7813,1715 Scott Dr,Salt Lake City,CA,93944
Latonya,Eskew,(041) 856-7357,(795) 469-6443,(842) 853-3107,9 IBM Path,Alabama,CA,94309
Hobert,Stansfield,(130) 501-1506,(755) 551-7808,(671) 996-4984,777 West Filmore,Los Angeles,CA,94508
Edison,Napoleon,(995) 263-5063,(283) 681-6240,(766) 204-1716,9 IBM Path,Persistance,CA,94516
Eddie,Huntington,(808) 554-5036,(722) 890-8926,(856) 907-1155,345 Sugar Blvd.,San Mateo,CA,94607
Elvira,Swofford,(717) 357-9873,(710) 434-4571,(923) 061-5287,999 Baker Way,Denver,CA,94613
Luisa,Brann,(776) 938-2205,(060) 811-7121,(171) 584-0854,777 West Filmore,Alabama,CA,94704
Ivory,Worsley,(872) 458-7487,(777) 606-7122,(217) 013-0520,48920 San Carlos,Kansas City,CA,94720
Leola,Mcguinness,(720) 964-9562,(267) 915-2440,(140) 765-0775,123 Anywhere Street,San Jose,CA,94922
Dean,Weatherwax,(025) 045-4895,(841) 540-3060,(030) 224-6835,48920 San Carlos,Alabama,CA,94924
Tad,Mcculloch,(701) 213-8944,(793) 282-7161,(981) 452-6405,123 Anywhere Street,Salt Lake City,CA,94940
Jannie,Darnell,(368) 464-0370,(741) 829-7910,(681) 475-7353,777 West Filmore,San Francisco,CA,95064
Nellie,Holter,(797) 914-3071,(054) 720-0856,(735) 518-9999,111 Silicon Valley Road,Santa Monica,CA,95075
Mayra,Sweitzer,(174) 305-4738,(658) 363-6300,(445) 140-5539,321 University Ave.,Denver,CA,95202
Lindsay,Denniston,(589) 077-6991,(199) 746-7734,(811) 102-7967,345 Sugar Blvd.,Cupertino,CA,95205
Mara,Colwell,(148) 457-8269,(827) 887-9107,(162) 656-9903,777 West Filmore,San Mateo,CA,95210
Pat,Seagraves,(224) 875-6164,(471) 870-1898,(621) 828-2909,777 West Filmore,Kansas City,CA,95221
Sal,Moak,(382) 467-4127,(102) 571-1628,(915) 141-3585,321 University Ave.,Kansas City,CA,95248
Wayne,Riding,(997) 282-4323,(939) 825-5049,(346) 296-3511,777 West Filmore,Los Angeles,CA,95253
Bryce,Jesse,(392) 451-9587,(571) 304-9654,(629) 533-9455,777 West Filmore,San Jose,CA,95257
Zelma,Sebring,(780) 868-9651,(287) 526-3378,(539) 610-6156,999 Baker Way,Santa Monica,CA,95303
Calvin,Reed,(742) 096-8955,(015) 891-9623,(309) 374-7815,1715 Scott Dr,San Mateo,CA,95305
Andrea,Haman,(085) 176-1387,(872) 883-6108,(802) 682-4784,321 University Ave.,St. Petersburg,CA,95309
Bernardo,Friar,(278) 869-2647,(153) 335-3645,(034) 321-6909,123 Anywhere Street,Denver,CA,95310
Dee,Hofmann,(153) 061-6496,(092) 815-5109,(840) 192-7423,67321 West Siam St.,Ohio,CA,95312
Ramiro,Gonzales,(443) 227-4136,(483) 593-5387,(535) 816-8016,777 West Filmore,San Mateo,CA,95313
Olen,Lor,(311) 492-2997,(506) 933-5037,(277) 094-0919,777 West Filmore,Los Angeles,CA,95319
Socorro,Gleaton,(272) 171-5377,(602) 629-3525,(661) 975-1212,48920 San Carlos,Ohio,CA,95327
Isidro,Ebersole,(119) 873-9363,(806) 548-5777,(160) 883-2859,1715 Scott Dr,San Francisco,CA,95328
Bernardo,Krull,(067) 009-4554,(932) 554-3492,(072) 081-0485,123 Anywhere Street,Kansas City,CA,95333
Lindsey,Ordaz,(716) 016-7837,(427) 905-5036,(150) 519-9145,9 IBM Path,Salt Lake City,CA,95334
Fern,Mills,(532) 253-2330,(829) 810-9536,(620) 710-4675,999 Baker Way,San Jose,CA,95338
Brice,Mielke,(428) 637-9149,(219) 969-4852,(541) 063-0522,1715 Scott Dr,Santa Fe,CA,95340
Harriet,Munch,(925) 920-3979,(795) 080-0725,(159) 275-8519,321 University Ave.,Santa Monica,CA,95341
Mandy,Unruh,(697) 961-3820,(928) 700-0412,(435) 489-2470,999 Baker Way,Santa Monica,CA,95348
Maynard,Hallett,(766) 986-9951,(003) 368-0024,(563) 900-8574,123 Anywhere Street,San Jose,CA,95351
Monica,Alderson,(737) 841-3901,(816) 838-9079,(164) 770-0468,1715 Scott Dr,Santa Fe,CA,95353
Carla,Lobel,(118) 563-8770,(709) 352-7469,(105) 922-7270,111 Silicon Valley Road,San Francisco,CA,95358
Cecile,Charland,(377) 666-8353,(945) 684-2078,(690) 784-5674,1715 Scott Dr,San Francisco,CA,95365
Ira,Jaramillo,(954) 864-0925,(973) 128-8075,(262) 101-7863,9 IBM Path,St. Petersburg,CA,95374
Ofelia,Premo,(781) 149-8099,(469) 784-7141,(684) 390-4401,9 IBM Path,Ohio,CA,95379
Cary,Hartsfield,(015) 647-1105,(360) 628-8549,(053) 348-9804,67321 West Siam St.,San Mateo,CA,95380
Craig,Ambler,(490) 775-4936,(851) 702-6821,(817) 106-0171,1715 Scott Dr,Alabama,CA,95383
Alisa,Trapp,(439) 399-1888,(283) 251-4328,(676) 554-2958,123 Anywhere Street,Santa Monica,CA,95385
Ernestine,Mahler,(179) 479-8973,(770) 241-2349,(813) 791-6729,345 Sugar Blvd.,Los Angeles,CA,95386
Rick,Menard,(954) 415-5365,(231) 180-9647,(459) 489-0745,111 Silicon Valley Road,Salt Lake City,CA,95388
Shauna,Luff,(558) 022-9705,(276) 797-8159,(394) 887-1386,123 Anywhere Street,Ohio,CA,95410
Dong,Mercuri,(081) 551-4865,(761) 296-7454,(742) 938-6228,1715 Scott Dr,San Mateo,CA,95412
Aron,Follett,(427) 465-7115,(615) 931-5142,(264) 086-5519,9 IBM Path,San Jose,CA,95420
Rachael,Guido,(993) 272-8015,(541) 416-1624,(235) 920-2423,123 Anywhere Street,Ohio,CA,95422
Shari,Manno,(646) 435-6986,(691) 980-5710,(376) 683-4394,48920 San Carlos,San Francisco,CA,95423
Marion,Polster,(926) 878-3459,(315) 542-0538,(789) 989-5750,321 University Ave.,St. Petersburg,CA,95424
Barrett,Bracy,(525) 261-9486,(685) 118-9510,(288) 218-1709,111 Silicon Valley Road,Alabama,CA,95428
Alyce,Reyes,(375) 487-1379,(682) 905-1169,(693) 547-0206,321 University Ave.,Santa Fe,CA,95432
Allison,Geno,(816) 032-3943,(876) 419-7922,(965) 249-6119,1715 Scott Dr,Alabama,CA,95437
German,Braswell,(746) 629-9217,(175) 485-3926,(684) 498-6722,123 Anywhere Street,Santa Fe,CA,95454
Emma,Ralph,(168) 458-4932,(370) 226-6198,(965) 167-0634,999 Baker Way,San Francisco,CA,95456
Diego,Wright,(696) 984-5348,(611) 283-3979,(630) 833-4295,1715 Scott Dr,Salt Lake City,CA,95458
Elbert,Heinrich,(093) 054-8365,(137) 054-4726,(367) 253-1765,1715 Scott Dr,Cupertino,CA,95460
Katrina,Pell,(265) 721-4257,(024) 707-2631,(371) 037-0871,48920 San Carlos,Salt Lake City,CA,95462
Concepcion,Keesler,(569) 408-2710,(861) 724-4093,(723) 709-2236,345 Sugar Blvd.,Santa Fe,CA,95464
Newton,Lowry,(339) 639-0184,(491) 228-6497,(140) 215-2939,1715 Scott Dr,Sunnyvale,CA,95468
Cheri,Argo,(169) 440-9881,(827) 558-8069,(016) 704-0806,345 Sugar Blvd.,Ohio,CA,95480
Gwendolyn,Unruh,(330) 967-5101,(618) 845-1943,(721) 850-4230,123 Anywhere Street,San Mateo,CA,95481
Augustus,Griswold,(575) 682-9287,(318) 366-0246,(429) 527-7156,123 Anywhere Street,Persistance,CA,95485
Guadalupe,Burris,(040) 630-6970,(610) 089-6898,(495) 880-6307,67321 West Siam St.,Santa Monica,CA,95488
Sybil,Ek,(670) 792-2800,(471) 290-7912,(080) 199-2653,67321 West Siam St.,Cupertino,CA,95490
Cameron,Diehl,(616) 189-8141,(947) 658-4955,(146) 441-5294,321 University Ave.,Santa Fe,CA,95501
Joaquin,Surber,(458) 430-2614,(335) 814-7438,(163) 659-0063,48920 San Carlos,Cupertino,CA,95502
Michale,Vadnais,(989) 834-1982,(836) 030-9267,(881) 046-6552,111 Silicon Valley Road,San Jose,CA,95518
Brenda,Paik,(576) 641-5747,(059) 435-4236,(898) 130-0709,999 Baker Way,Salt Lake City,CA,95521
Anne,Alderete,(164) 875-8725,(914) 696-5545,(470) 579-5013,48920 San Carlos,Denver,CA,95524
Mack,Lheureux,(279) 392-5623,(003) 937-2041,(462) 936-3677,48920 San Carlos,Alabama,CA,95525
Jana,Gualtieri,(943) 180-3652,(393) 565-9681,(341) 461-1036,9 IBM Path,Kansas City,CA,95526
Linda,Plain,(781) 239-2704,(742) 532-4511,(898) 090-8684,999 Baker Way,Santa Monica,CA,95527
Maureen,Smead,(509) 075-6072,(597) 741-2198,(314) 640-5524,48920 San Carlos,St. Petersburg,CA,95531
Lupe,Massingill,(309) 756-5054,(450) 777-5866,(545) 695-0603,345 Sugar Blvd.,Cupertino,CA,95537
Russel,Kaster,(340) 174-1210,(632) 206-4381,(733) 878-3855,345 Sugar Blvd.,Los Angeles,CA,95542
Ernestine,Mannings,(874) 824-4077,(381) 097-8339,(589) 082-2509,1715 Scott Dr,Alabama,CA,95546
Carson,Schuster,(625) 606-7301,(517) 264-5745,(711) 238-2205,1715 Scott Dr,Ohio,CA,95548
Alice,Redden,(698) 529-2951,(085) 688-8238,(607) 420-1878,48920 San Carlos,San Jose,CA,95552
Hank,Blackburn,(757) 331-0906,(394) 262-6434,(180) 721-9041,67321 West Siam St.,Santa Monica,CA,95553
Leon,Winsor,(090) 830-2839,(590) 371-4174,(425) 026-5447,777 West Filmore,Persistance,CA,95555
Johnathon,Edick,(041) 792-4310,(956) 441-3737,(802) 234-7183,67321 West Siam St.,Santa Fe,CA,95556
Vonda,Wisniewski,(913) 851-4244,(861) 105-6884,(157) 703-2193,999 Baker Way,Salt Lake City,CA,95560
Noemi,Carman,(647) 706-1922,(023) 239-4231,(194) 221-5463,321 University Ave.,St. Petersburg,CA,95562
Reyes,Grove,(607) 865-5312,(294) 396-1493,(350) 999-1340,345 Sugar Blvd.,San Francisco,CA,95563
Tracy,Hazlett,(610) 614-5316,(477) 950-0857,(086) 083-7977,67321 West Siam St.,San Mateo,CA,95564
Norberto,Squire,(749) 323-1862,(085) 806-4887,(624) 480-2778,777 West Filmore,San Francisco,CA,95567
Ernest,Lueck,(163) 758-6342,(389) 301-7939,(639) 199-4116,48920 San Carlos,Los Angeles,CA,95573
Ismael,Mccown,(629) 501-8400,(446) 195-5339,(119) 061-6001,111 Silicon Valley Road,Ohio,CA,95589
Bridgett,Rollins,(660) 915-4514,(124) 212-2842,(706) 495-4139,345 Sugar Blvd.,Santa Fe,CA,95595
Earnestine,Kerby,(849) 696-2137,(944) 062-5959,(919) 620-2791,321 University Ave.,Santa Fe,CA,95605
Jesus,Glassman,(945) 137-0253,(106) 113-5823,(519) 751-8991,9 IBM Path,Sunnyvale,CA,95613
Arline,Furguson,(788) 787-1763,(309) 559-4195,(987) 424-4024,9 IBM Path,San Mateo,CA,95615
Ginger,Macgregor,(215) 608-5509,(445) 622-8248,(318) 832-0292,999 Baker Way,Alabama,CA,95616
Jaime,Talmage,(811) 107-9152,(981) 369-2258,(748) 113-9726,999 Baker Way,Alabama,NY,88947
Blaine,Bruce,(368) 316-6202,(567) 403-3985,(847) 062-4081,9 IBM Path,St. Petersburg,NY,88765
Carol,Kiser,(607) 787-0300,(410) 463-5232,(499) 320-4339,111 Silicon Valley Road,Sunnyvale,NY,88762
Boyd,Forand,(426) 089-2659,(234) 383-4284,(390) 464-0162,777 West Filmore,Santa Fe,NY,88551
Norman,Joines,(667) 999-8561,(851) 808-8583,(347) 303-8127,111 Silicon Valley Road,Denver,NY,88489
Viola,Kimzey,(559) 468-1496,(231) 319-7170,(295) 586-0698,9 IBM Path,Santa Fe,NY,88433
Beryl,Dimatteo,(040) 368-2192,(283) 179-6379,(960) 912-2374,345 Sugar Blvd.,San Mateo,NY,88314
Christopher,Gros,(484) 531-1794,(510) 104-7660,(236) 070-7643,777 West Filmore,Sunnyvale,NY,87818
Allie,Aarons,(153) 458-0232,(621) 421-8345,(189) 008-5856,999 Baker Way,Denver,NY,87802
Rigoberto,Schmaltz,(930) 870-0586,(174) 205-4122,(185) 393-3093,999 Baker Way,San Jose,NY,87677
Glenna,Ehret,(002) 569-5805,(326) 373-3160,(650) 971-9838,48920 San Carlos,Los Angeles,NY,87521
Malcom,Lovell,(932) 007-0933,(531) 308-5600,(386) 162-1692,9 IBM Path,Santa Monica,NY,87253
Lawerence,Auerbach,(652) 070-1723,(506) 031-2329,(086) 766-8104,111 Silicon Valley Road,Ohio,NY,87035
Joshua,Mcaleer,(312) 222-0636,(520) 581-4912,(531) 587-4852,67321 West Siam St.,Los Angeles,NY,86481
Eloy,Guillaume,(785) 684-8348,(863) 496-0527,(058) 292-1300,345 Sugar Blvd.,Cupertino,NY,86119
Otto,Shoaf,(734) 785-1998,(984) 502-4642,(260) 723-9818,67321 West Siam St.,Kansas City,NY,88947
Stacy,Layfield,(751) 925-9779,(045) 070-5104,(013) 601-0516,9 IBM Path,Ohio,NY,88765
Kimberlee,Sanderson,(802) 989-1755,(417) 961-6191,(097) 730-2894,67321 West Siam St.,San Jose,NY,88762
Hector,Durham,(065) 004-0278,(386) 857-8533,(816) 244-6730,1715 Scott Dr,San Francisco,NY,88551
Selena,Buckle,(812) 576-6744,(230) 677-3328,(655) 592-3032,321 University Ave.,Santa Fe,NY,88489
Alphonse,Newbern,(606) 069-3211,(110) 021-6031,(564) 655-7082,999 Baker Way,Los Angeles,NY,88433
Tammi,Michaud,(239) 368-2718,(978) 772-6929,(327) 741-0960,111 Silicon Valley Road,Santa Monica,NY,88314
Dudley,Ratner,(780) 486-3533,(059) 916-7508,(737) 327-6264,321 University Ave.,Sunnyvale,NY,87818
Eddy,Prince,(268) 971-4823,(755) 260-9345,(821) 142-0971,67321 West Siam St.,Ohio,NY,87802
Noreen,Wadley,(434) 795-8578,(149) 402-3416,(291) 265-0201,777 West Filmore,San Francisco,NY,87677
Beatriz,Deleon,(734) 633-3534,(614) 352-6762,(855) 509-7450,111 Silicon Valley Road,Santa Monica,NY,87521
Deann,Bearce,(713) 049-7734,(839) 551-9986,(301) 680-1187,345 Sugar Blvd.,Salt Lake City,NY,88947
Dana,Thornberry,(646) 446-5679,(078) 948-3900,(624) 881-7683,345 Sugar Blvd.,Alabama,NY,88765
Tanya,Dorfman,(696) 803-1229,(078) 724-6207,(025) 021-4533,9 IBM Path,San Mateo,NY,88762
Archie,Courtney,(929) 555-7712,(835) 829-2339,(471) 999-7885,777 West Filmore,Los Angeles,NY,88551
Jeannine,Timms,(408) 135-1862,(507) 402-2391,(160) 929-9570,777 West Filmore,Santa Fe,NY,88489
Gonzalo,Cloer,(566) 085-8887,(593) 966-6906,(689) 522-1790,123 Anywhere Street,Kansas City,NY,88433
Hunter,Ditch,(501) 761-9496,(779) 031-2236,(543) 876-5089,999 Baker Way,St. Petersburg,NY,88314
Nicky,Danielson,(605) 842-9738,(595) 728-8050,(865) 570-1627,999 Baker Way,St. Petersburg,NY,87818
Chadwick,Gillison,(570) 043-2028,(126) 677-3669,(433) 064-1050,999 Baker Way,Cupertino,NY,87802
Jack,Wainwright,(980) 786-1031,(699) 242-5723,(018) 197-9765,777 West Filmore,Kansas City,NY,87677
Dominique,Houle,(264) 855-7158,(926) 403-1148,(779) 547-1117,123 Anywhere Street,Ohio,NY,87521
Teresa,Nicks,(815) 838-7314,(858) 349-8681,(722) 628-5204,999 Baker Way,Los Angeles,NY,87253
Ira,Cothern,(156) 414-1415,(136) 876-3919,(295) 632-3910,67321 West Siam St.,Alabama,NY,87035
Bradley,Howard,(319) 165-0338,(568) 264-0433,(956) 305-7518,345 Sugar Blvd.,Kansas City,NY,86481
Jason,Blasingame,(555) 750-7537,(655) 940-2434,(840) 686-2204,1715 Scott Dr,Santa Monica,NY,86119
Micheal,Issac,(366) 626-9595,(726) 219-0655,(573) 355-5532,345 Sugar Blvd.,Persistance,NY,85775
Myra,Brice,(254) 635-4640,(995) 747-0621,(285) 676-8906,345 Sugar Blvd.,San Jose,NY,85709
Loyd,Titus,(703) 097-2197,(721) 547-5557,(939) 357-3669,123 Anywhere Street,San Jose,NY,85517
Alejandra,Chevez,(095) 815-6499,(813) 835-5741,(588) 352-8132,9 IBM Path,Sunnyvale,NY,85038
Gabriel,Dalton,(705) 025-8267,(256) 542-3213,(846) 413-3050,111 Silicon Valley Road,Ohio,NY,85032
Doretha,Raven,(770) 373-4442,(651) 299-2973,(113) 226-5447,999 Baker Way,San Jose,NY,84006
Luke,Falbo,(704) 529-1375,(083) 189-9050,(252) 827-7800,67321 West Siam St.,Denver,NY,83712
Walker,Mayhugh,(144) 807-9362,(875) 071-4275,(239) 415-5292,345 Sugar Blvd.,St. Petersburg,NY,88765
Earl,Coutee,(490) 736-1243,(606) 376-6961,(242) 600-8799,67321 West Siam St.,Salt Lake City,NY,88762
Whitney,Kidwell,(069) 171-5314,(226) 831-1329,(101) 707-4483,111 Silicon Valley Road,Alabama,NY,88551
Mandy,Swallow,(535) 477-6632,(265) 800-9026,(138) 915-5473,1715 Scott Dr,Denver,NY,88489
Rudolph,Cort,(230) 170-1251,(513) 594-7263,(309) 797-3842,67321 West Siam St.,Alabama,NY,88433
Adriana,Mccullers,(583) 034-9684,(449) 412-3442,(165) 748-4389,999 Baker Way,Alabama,NY,88314
Katelyn,Schleicher,(313) 278-2247,(217) 422-0547,(488) 409-8128,999 Baker Way,Kansas City,NY,87818
Boyd,Marshal,(768) 890-9155,(355) 739-3543,(872) 585-3919,321 University Ave.,Los Angeles,NY,87802
Monty,Larimer,(122) 758-6885,(130) 156-9055,(893) 749-7910,999 Baker Way,Salt Lake City,NY,87677
Jimmie,Hundt,(410) 468-8102,(832) 785-8027,(244) 808-3506,48920 San Carlos,Alabama,NY,87521
Alfredo,Root,(811) 852-7498,(881) 705-9024,(887) 167-8277,123 Anywhere Street,Cupertino,NY,87253
Fritz,Mckenny,(592) 548-2933,(083) 980-1582,(640) 076-1311,777 West Filmore,Santa Monica,NY,87035
Tamera,Fiala,(424) 209-3403,(914) 958-1058,(876) 088-5916,345 Sugar Blvd.,Salt Lake City,NY,86481
Harry,Sankey,(349) 506-4597,(727) 772-4858,(872) 651-6497,123 Anywhere Street,San Jose,NY,86119
Rodrick,Sun,(505) 452-5270,(644) 737-6034,(432) 902-9195,123 Anywhere Street,Sunnyvale,NY,85775
Rhett,Hurd,(354) 632-9045,(774) 047-4727,(747) 723-4513,9 IBM Path,Cupertino,NY,85709
Les,Streeter,(714) 664-1349,(028) 637-0572,(178) 918-3696,1715 Scott Dr,San Jose,NY,85517
Buster,Benoit,(570) 151-8041,(340) 529-2291,(086) 018-8065,777 West Filmore,Sunnyvale,NY,85038
Thomas,Piland,(936) 411-2174,(270) 488-7551,(549) 018-4573,67321 West Siam St.,Sunnyvale,NY,85032
Mack,Drumm,(794) 534-4678,(545) 574-5893,(907) 547-6544,123 Anywhere Street,Denver,NY,84006
Jeffry,Pasko,(474) 377-7089,(957) 980-1632,(151) 920-4684,345 Sugar Blvd.,Sunnyvale,NY,83712
Shawn,Bolds,(298) 200-6563,(574) 437-8974,(129) 726-7632,999 Baker Way,Sunnyvale,NY,82684
Muriel,Hogle,(049) 071-8562,(932) 714-2777,(860) 355-0542,48920 San Carlos,Santa Monica,NY,82248
Winnie,Jarrard,(994) 315-1742,(384) 223-5615,(441) 030-7944,48920 San Carlos,Alabama,NY,82100
Kathrine,Quintana,(255) 007-5264,(046) 666-9720,(076) 191-2612,123 Anywhere Street,San Mateo,NY,82057
Casandra,Dickey,(011) 015-0633,(472) 235-9821,(821) 022-5052,123 Anywhere Street,Alabama,NY,81845
Paulette,Stonebraker,(575) 274-6910,(672) 424-4863,(971) 461-0739,48920 San Carlos,Sunnyvale,NY,81480
Davis,Kamp,(734) 756-5954,(270) 319-0013,(349) 260-9823,345 Sugar Blvd.,Los Angeles,NY,81337
Leroy,Brice,(240) 903-2313,(831) 313-0480,(047) 842-8406,48920 San Carlos,San Francisco,NY,80893
Carol,Delbosque,(082) 432-4337,(705) 955-4734,(675) 125-1239,345 Sugar Blvd.,Salt Lake City,NY,80396
Joshua,Croy,(659) 752-4475,(327) 956-6354,(613) 112-0230,777 West Filmore,St. Petersburg,NY,80186
Dudley,Nickelson,(983) 117-5256,(115) 070-0154,(697) 582-2805,123 Anywhere Street,Salt Lake City,NY,79789
Jed,Backer,(545) 284-6779,(519) 948-6660,(191) 832-1550,777 West Filmore,San Mateo,NY,79712
Nathaniel,Leet,(123) 017-4737,(310) 643-7825,(262) 650-4967,48920 San Carlos,San Francisco,NY,78998
Tori,Crotty,(023) 147-9150,(887) 085-8198,(676) 909-7796,111 Silicon Valley Road,San Francisco,NY,78761
Hubert,Denniston,(912) 771-0105,(273) 665-5962,(555) 834-5395,777 West Filmore,Kansas City,NY,78105
Karina,Nipp,(916) 787-5075,(074) 734-9760,(467) 232-1934,123 Anywhere Street,Los Angeles,NY,77984
Florentino,Speth,(755) 852-8911,(773) 638-7734,(752) 190-3986,48920 San Carlos,Santa Fe,NY,77571
Ron,Guimond,(193) 613-8106,(583) 980-4038,(585) 646-4605,1715 Scott Dr,St. Petersburg,NY,77346
Hans,Buffum,(176) 793-2676,(930) 237-9246,(920) 639-0021,321 University Ave.,San Francisco,NY,76705
Ira,Slone,(759) 841-6551,(248) 183-4199,(670) 685-0731,9 IBM Path,Cupertino,NY,76117
Bernadine,Kennell,(989) 229-3008,(010) 331-1381,(817) 684-5215,321 University Ave.,Ohio,NY,75603
Denver,Lanza,(971) 757-3897,(748) 249-6802,(854) 199-2086,345 Sugar Blvd.,Santa Fe,NY,75508
Dominick,Deshong,(153) 589-0366,(432) 238-4779,(783) 551-0730,111 Silicon Valley Road,Denver,NY,75345
Charity,Muhammad,(431) 987-3109,(803) 507-2167,(821) 123-0852,48920 San Carlos,Denver,NY,74974
Aaron,Salvatore,(907) 953-7314,(432) 995-8852,(531) 470-7464,777 West Filmore,Persistance,NY,74570
Noelle,Cohan,(419) 194-1619,(327) 924-4541,(120) 418-5531,999 Baker Way,San Francisco,NY,73576
Callie,Pedrick,(067) 952-6947,(717) 680-5617,(494) 960-0646,123 Anywhere Street,Salt Lake City,NY,73328
Emil,Constance,(596) 998-8905,(392) 858-7415,(463) 819-1578,1715 Scott Dr,Persistance,NY,72448
Lloyd,Nesbitt,(110) 107-1936,(172) 611-9226,(716) 424-9273,9 IBM Path,San Mateo,NY,72079
Kendrick,Mullinax,(049) 496-6287,(401) 353-6908,(764) 201-8363,111 Silicon Valley Road,San Jose,NY,71560
Eugenio,Bechtold,(638) 339-5802,(771) 688-1322,(444) 655-1920,123 Anywhere Street,San Mateo,NY,71464
Nichole,Mckechnie,(800) 379-6447,(763) 903-3867,(881) 944-7298,9 IBM Path,Denver,NY,71455
Pablo,Vinyard,(952) 149-6828,(050) 114-4965,(033) 287-9930,321 University Ave.,St. Petersburg,NY,71215
Alfreda,Breault,(021) 634-5416,(397) 639-8306,(695) 688-8809,9 IBM Path,Los Angeles,NY,71131
Karina,Montijo,(274) 848-1785,(930) 217-3391,(037) 152-0871,67321 West Siam St.,Los Angeles,NY,70897
Tommie,Yin,(282) 210-0617,(533) 768-9013,(063) 687-8238,345 Sugar Blvd.,Los Angeles,NY,70688
Ellen,Grider,(502) 693-7004,(315) 952-7953,(452) 463-0768,48920 San Carlos,San Jose,NY,70666
Cleo,Vida,(336) 018-1605,(965) 068-0504,(085) 182-4065,777 West Filmore,Kansas City,NY,70337
Iris,Rast,(833) 223-6362,(569) 091-2885,(494) 630-9753,9 IBM Path,Persistance,NY,70052
Chrystal,Dehaven,(012) 242-8399,(251) 975-9219,(581) 641-8083,345 Sugar Blvd.,San Jose,NY,68915
Gail,Steger,(297) 704-4853,(110) 983-9897,(464) 406-5381,345 Sugar Blvd.,Salt Lake City,NY,68683
Sybil,Teague,(799) 951-0667,(904) 875-8739,(024) 879-5663,123 Anywhere Street,Salt Lake City,NY,68243
Selena,Byford,(089) 615-0261,(289) 317-5248,(791) 101-1248,321 University Ave.,Persistance,NY,68151
Morton,Moffitt,(184) 221-4953,(819) 904-7175,(284) 791-2629,345 Sugar Blvd.,Los Angeles,NY,67499
Lane,Hirano,(103) 021-6941,(460) 920-5557,(172) 011-7244,67321 West Siam St.,Alabama,NY,66539
Burton,Pelkey,(806) 561-0581,(925) 568-1671,(519) 499-5008,123 Anywhere Street,Sunnyvale,NY,66064
Robby,Desmond,(361) 401-8187,(941) 580-7513,(211) 962-5741,67321 West Siam St.,San Jose,NY,65739
Glenna,Meissner,(173) 505-2070,(413) 613-2425,(595) 598-7120,111 Silicon Valley Road,San Francisco,NY,65514
Sheri,Poulin,(182) 088-5042,(655) 882-1476,(308) 516-5378,111 Silicon Valley Road,Salt Lake City,NY,65317
Ignacio,Hutchcraft,(706) 806-9871,(109) 735-5530,(780) 784-0337,999 Baker Way,Santa Monica,NY,65014
Asa,Jimmerson,(736) 682-3681,(739) 082-0830,(267) 602-9987,999 Baker Way,Sunnyvale,NY,64574
Ladonna,Mattes,(257) 116-8117,(973) 606-3917,(369) 227-6184,345 Sugar Blvd.,San Jose,NY,64569
Jerrell,Hinze,(947) 395-9660,(566) 960-0950,(389) 312-4957,67321 West Siam St.,San Francisco,NY,64426
Maryann,Griffeth,(402) 592-1180,(061) 956-6538,(714) 718-1683,67321 West Siam St.,Kansas City,NY,63969
Sierra,Mysliwiec,(005) 935-1941,(727) 771-6736,(687) 578-8544,48920 San Carlos,Santa Fe,NY,63936
Dale,Acker,(454) 001-7761,(414) 046-5601,(572) 693-9225,123 Anywhere Street,St. Petersburg,NY,63459
Kimberley,Domenech,(122) 976-0464,(211) 239-6700,(335) 107-3339,345 Sugar Blvd.,Kansas City,NY,63169
Cliff,Shadrick,(353) 458-7885,(556) 085-9249,(253) 426-7459,48920 San Carlos,San Jose,NY,63046
Colin,Witmer,(634) 775-9432,(884) 264-6238,(063) 835-3974,321 University Ave.,Santa Fe,NY,62716
Ollie,Prokop,(876) 815-5420,(285) 249-2465,(557) 332-0935,1715 Scott Dr,Salt Lake City,NY,62372
Brooks,Rimer,(775) 957-8429,(123) 567-8272,(766) 525-5865,999 Baker Way,Alabama,NY,62308
Man,Stoops,(098) 639-0241,(993) 592-4739,(726) 057-6347,321 University Ave.,San Jose,NY,61884
Esteban,Goldfarb,(589) 428-4529,(688) 555-9362,(583) 535-8753,345 Sugar Blvd.,Alabama,NY,61742
Jan,Jester,(527) 276-8705,(115) 933-8750,(162) 680-1984,111 Silicon Valley Road,Alabama,NY,61467
Stephanie,Royston,(175) 055-0696,(635) 357-2049,(788) 209-5663,999 Baker Way,Sunnyvale,NY,61199
Fred,Huerta,(654) 759-7266,(587) 204-4184,(423) 836-5093,67321 West Siam St.,San Jose,NY,60915
Fredric,Bullington,(196) 010-5700,(909) 124-1164,(559) 820-7822,123 Anywhere Street,Persistance,NY,60863
Nancy,Ochs,(827) 554-4559,(345) 230-7173,(978) 676-8110,321 University Ave.,Santa Fe,NY,60761
Zack,Tomlinson,(837) 755-0292,(923) 166-9943,(471) 808-5023,345 Sugar Blvd.,Los Angeles,NY,60624
Heather,Albee,(445) 347-6257,(170) 578-8687,(718) 690-3987,48920 San Carlos,Santa Fe,NY,60618
Tomas,Wedgeworth,(174) 237-6923,(399) 868-6968,(916) 702-9672,345 Sugar Blvd.,San Francisco,NY,60316
Norris,Lundin,(287) 670-3004,(945) 292-5036,(196) 337-6679,1715 Scott Dr,San Francisco,NY,60210
Agnes,Rencher,(996) 228-8866,(584) 759-6791,(771) 926-3104,111 Silicon Valley Road,Salt Lake City,NY,59957
Glen,Jarboe,(744) 690-0531,(865) 430-3296,(305) 905-8041,123 Anywhere Street,Kansas City,NY,59612
Clint,Rouleau,(921) 605-7294,(222) 151-4214,(457) 337-5967,1715 Scott Dr,Santa Fe,NY,59033
Dino,Hoots,(663) 122-2279,(774) 750-0775,(528) 970-4586,999 Baker Way,Kansas City,NY,58991
Bethany,Vaughan,(890) 262-4549,(878) 429-5699,(907) 050-8809,9 IBM Path,San Mateo,NY,58856
Cordell,Bruton,(077) 945-8700,(861) 966-9171,(971) 305-2182,999 Baker Way,Alabama,NY,58594
Geraldine,Rogue,(812) 269-8556,(676) 757-9253,(719) 693-5150,999 Baker Way,Kansas City,NY,58508
Vicki,Soliz,(444) 456-3418,(485) 430-8181,(143) 433-0805,1715 Scott Dr,Kansas City,NY,57803
Abram,Salcido,(006) 968-3675,(939) 961-1066,(492) 673-3945,9 IBM Path,Santa Fe,NY,57636
Christoper,Macon,(983) 653-2868,(703) 434-8132,(206) 409-9896,999 Baker Way,Ohio,NY,57384
Ola,Marinelli,(532) 657-4717,(598) 750-0009,(985) 003-3556,111 Silicon Valley Road,Denver,NY,57225
Mindy,Olmstead,(338) 004-0334,(508) 088-0989,(655) 611-3570,999 Baker Way,Salt Lake City,NY,57101
Gordon,Wilcoxon,(586) 779-7577,(784) 616-4368,(879) 633-6028,67321 West Siam St.,Santa Fe,NY,56776
Orval,Friddle,(861) 994-8808,(047) 401-1850,(159) 488-9597,9 IBM Path,Santa Fe,NY,56774
Carey,Sellars,(213) 059-5421,(687) 370-2024,(912) 549-5941,345 Sugar Blvd.,Salt Lake City,NY,56152
Carole,Finnegan,(189) 446-2296,(319) 264-7043,(442) 813-2594,1715 Scott Dr,Santa Monica,NY,55247
Rosalia,Mott,(031) 232-0512,(840) 361-6484,(191) 736-2763,67321 West Siam St.,Salt Lake City,NY,54231
Thaddeus,Ritch,(934) 902-4873,(658) 843-6114,(619) 664-4210,777 West Filmore,Salt Lake City,NY,53204
Keisha,Siu,(659) 220-4475,(542) 046-1271,(632) 685-0578,9 IBM Path,Cupertino,NY,52676
Leta,Shook,(151) 552-4237,(289) 197-1319,(326) 052-7391,777 West Filmore,Los Angeles,NY,52238
Fanny,Mascarenas,(901) 661-5615,(905) 389-2607,(043) 541-9173,48920 San Carlos,St. Petersburg,NY,52046
Laura,Bhatt,(192) 887-2140,(985) 945-8072,(524) 864-4872,999 Baker Way,Los Angeles,NY,51759
Milton,Drakeford,(993) 121-7436,(117) 318-9882,(991) 508-9725,48920 San Carlos,Persistance,NY,51741
Beryl,Turnipseed,(983) 997-9783,(613) 240-3805,(546) 305-9336,1715 Scott Dr,San Mateo,NY,51658
Lawerence,Rech,(132) 285-1780,(738) 308-0718,(602) 264-0766,345 Sugar Blvd.,San Mateo,NY,51477
Doug,Kearse,(531) 490-3920,(350) 468-0080,(865) 748-7372,9 IBM Path,Salt Lake City,NY,51456
Regina,Purdy,(419) 357-6926,(232) 749-0153,(455) 053-8416,1715 Scott Dr,Denver,NY,50695
Tori,Linder,(460) 086-6473,(041) 350-3668,(864) 911-6931,67321 West Siam St.,Cupertino,NY,50645
Elton,Estepp,(201) 968-3236,(833) 784-1104,(147) 399-3359,1715 Scott Dr,Ohio,NY,50424
Christoper,Westberry,(365) 462-5034,(211) 397-3847,(107) 800-0253,999 Baker Way,Alabama,NY,50399
Irwin,Capuano,(300) 645-1668,(737) 538-1776,(554) 933-1178,48920 San Carlos,Kansas City,NY,49952
Jacob,Wrobel,(675) 233-7131,(343) 723-2605,(335) 867-7366,123 Anywhere Street,San Mateo,NY,49602
Lydia,Neubauer,(450) 150-0982,(026) 033-0666,(170) 518-2222,321 University Ave.,St. Petersburg,NY,49511
Willie,Wiggs,(043) 465-3899,(504) 651-4617,(795) 863-9327,777 West Filmore,Santa Fe,NY,49366
Ariel,Eyman,(375) 056-7170,(976) 686-1645,(033) 391-5200,9 IBM Path,Salt Lake City,NY,49289
Annie,Kitson,(968) 555-9047,(177) 157-9532,(625) 390-5816,9 IBM Path,Santa Monica,NY,49281
Theodore,Greenberg,(627) 738-7818,(656) 312-8279,(838) 448-5135,999 Baker Way,Salt Lake City,NY,48862
Rosemary,Sandidge,(788) 209-0732,(463) 332-4496,(782) 510-5693,1715 Scott Dr,Sunnyvale,NY,48854
Pamala,Mantz,(329) 537-4766,(969) 566-0730,(062) 542-3596,123 Anywhere Street,Santa Monica,NY,48461
Thaddeus,Talton,(976) 975-5893,(929) 320-5094,(987) 151-7414,111 Silicon Valley Road,San Jose,NY,48349
Brooke,Hayden,(172) 509-6099,(251) 989-2521,(662) 184-8572,321 University Ave.,San Francisco,NY,48226
Myron,Rosenstein,(652) 752-5930,(970) 040-5857,(517) 573-1447,48920 San Carlos,Santa Fe,NY,48105
Roger,Booe,(342) 535-3752,(026) 215-4041,(840) 946-1926,9 IBM Path,San Francisco,NY,48103
Jacob,Wales,(495) 844-1736,(068) 259-8806,(284) 785-3693,1715 Scott Dr,Sunnyvale,NY,47930
Corinne,Vetter,(678) 396-9984,(181) 298-6930,(449) 814-4409,9 IBM Path,San Francisco,NY,47590
Fannie,Jamison,(244) 281-0163,(643) 796-0112,(096) 420-4351,777 West Filmore,San Mateo,NY,47130
Errol,Lebo,(119) 819-8352,(217) 843-7736,(807) 157-0513,111 Silicon Valley Road,Persistance,NY,47130
Jennifer,Copenhaver,(969) 985-7727,(331) 830-1280,(248) 787-4916,111 Silicon Valley Road,Alabama,NY,46791
Val,Chesser,(989) 817-1969,(645) 514-8348,(227) 103-1523,345 Sugar Blvd.,Denver,NY,46760
Lorenzo,Highland,(947) 791-4226,(285) 973-6598,(826) 102-4726,999 Baker Way,Cupertino,NY,46026
Fanny,Gandy,(940) 906-9302,(352) 431-1633,(962) 684-3471,67321 West Siam St.,Santa Fe,NY,45556
Fabian,Seger,(920) 238-7941,(486) 934-5962,(074) 732-3480,67321 West Siam St.,Alabama,NY,45428
Scott,Ryder,(909) 772-1868,(506) 533-7026,(816) 116-4987,9 IBM Path,Sunnyvale,NY,45314
Yesenia,Kerby,(208) 758-8419,(174) 908-9110,(663) 103-8517,9 IBM Path,Denver,NY,45058
Jasmin,Kapoor,(452) 835-4945,(197) 392-8289,(474) 303-0725,999 Baker Way,Sunnyvale,NY,44955
Dylan,Bergquist,(143) 589-2134,(423) 458-4247,(169) 089-0265,345 Sugar Blvd.,Santa Fe,NY,44695
Angelique,Broadway,(400) 056-0087,(823) 110-2746,(207) 414-8271,48920 San Carlos,Kansas City,NY,44679
Cameron,Mang,(678) 210-5458,(658) 950-8027,(038) 744-0045,1715 Scott Dr,Salt Lake City,NY,44565
Fannie,Damiani,(177) 557-8586,(164) 432-9250,(771) 405-9968,999 Baker Way,Persistance,NY,44563
Janelle,Laborde,(757) 597-8423,(070) 129-0779,(664) 387-0249,1715 Scott Dr,Salt Lake City,NY,44196
Diego,Prado,(786) 105-9707,(319) 396-2219,(621) 216-0548,777 West Filmore,St. Petersburg,NY,44115
Laurence,Camargo,(883) 784-9619,(736) 109-1358,(750) 650-3614,1715 Scott Dr,San Mateo,NY,44010
Lula,Prudhomme,(451) 362-5640,(122) 750-7048,(190) 435-6646,9 IBM Path,San Mateo,NY,43860
Sybil,Kocher,(355) 506-9881,(124) 066-1298,(544) 733-2828,111 Silicon Valley Road,Salt Lake City,NY,43725
Leopoldo,Toledo,(051) 129-4937,(625) 793-6684,(174) 867-2150,111 Silicon Valley Road,San Francisco,NY,43233
Ilene,Lafferty,(962) 364-8954,(387) 259-6921,(045) 647-5418,48920 San Carlos,Sunnyvale,NY,43154
Camille,Buser,(954) 035-4067,(417) 733-2724,(932) 255-2766,999 Baker Way,San Mateo,NY,43112
Renaldo,Trudeau,(892) 109-1659,(888) 736-7946,(446) 324-2507,999 Baker Way,Los Angeles,NY,42802
Matilda,Latham,(977) 757-3853,(494) 293-2392,(259) 555-7372,9 IBM Path,Ohio,NY,42734
Beatriz,Beekman,(705) 869-1150,(272) 051-8858,(024) 616-0252,111 Silicon Valley Road,Ohio,NY,42663
Tommie,Sak,(803) 994-6699,(451) 653-3550,(273) 522-2570,123 Anywhere Street,San Mateo,NY,42555
Houston,Towne,(585) 947-7408,(540) 524-3799,(812) 206-4412,777 West Filmore,Los Angeles,NY,42318
Jeanne,Crew,(636) 600-4612,(904) 056-8248,(457) 519-7507,345 Sugar Blvd.,San Francisco,NY,41942
Al,Walston,(866) 235-3625,(443) 967-7882,(583) 126-5701,999 Baker Way,Persistance,NY,41845
Melvin,Lockhart,(340) 078-3859,(293) 717-5570,(111) 787-4652,999 Baker Way,San Mateo,NY,41410
Mable,Robicheaux,(688) 088-8614,(054) 341-5348,(385) 440-4420,321 University Ave.,Cupertino,NY,41347
Demarcus,Fendley,(025) 303-3078,(995) 874-1297,(152) 829-5664,111 Silicon Valley Road,San Jose,NY,41049
Eunice,Child,(573) 098-7815,(532) 995-1416,(183) 699-6993,67321 West Siam St.,Kansas City,NY,41044
Chester,Degraw,(278) 728-9128,(006) 528-1100,(854) 901-6316,321 University Ave.,Los Angeles,NY,40875
Darnell,Wheatley,(122) 928-2363,(786) 264-9713,(643) 078-5047,777 West Filmore,Persistance,NY,40446
Jewel,Coburn,(225) 950-4035,(000) 136-0286,(298) 429-0228,48920 San Carlos,Persistance,NY,40191
Abe,Vanhoose,(668) 789-9719,(760) 155-9266,(933) 488-0545,123 Anywhere Street,Persistance,NY,40071
Elisha,Sharer,(365) 962-8791,(072) 350-9626,(080) 812-1215,321 University Ave.,San Jose,NY,39832
Latoya,Lipman,(037) 907-6398,(203) 481-0951,(072) 445-4824,123 Anywhere Street,Ohio,NY,39161
Dionne,Byington,(983) 967-8318,(259) 416-2316,(660) 014-8550,345 Sugar Blvd.,Cupertino,NY,39117
Marlene,Sutliff,(483) 590-1798,(127) 805-9535,(519) 084-3572,67321 West Siam St.,Salt Lake City,NY,38745
Delores,White,(719) 854-2736,(257) 959-4656,(244) 659-9777,345 Sugar Blvd.,Santa Monica,NY,38514
Riley,Keese,(981) 821-8566,(551) 125-4009,(586) 416-7524,48920 San Carlos,Cupertino,NY,38253
Tracie,Deville,(392) 700-7047,(944) 526-2051,(282) 617-3749,777 West Filmore,Kansas City,NY,37695
Roseann,Gabel,(810) 928-9043,(022) 917-6422,(341) 895-2225,111 Silicon Valley Road,San Mateo,NY,37399
Kevin,Melton,(341) 974-9334,(856) 781-7200,(806) 678-5135,48920 San Carlos,San Jose,NY,35603
Freddy,Meurer,(921) 951-9509,(429) 271-3971,(024) 337-8018,123 Anywhere Street,Sunnyvale,NY,34784
Claudia,Tuck,(484) 472-5799,(900) 514-4945,(715) 087-8205,321 University Ave.,Sunnyvale,NY,34575
Keith,Mejia,(745) 235-4520,(062) 505-4483,(907) 580-6523,345 Sugar Blvd.,Sunnyvale,NY,34497
Cary,Aguero,(620) 557-1109,(415) 791-6903,(465) 121-2149,9 IBM Path,Sunnyvale,NY,34478
Roberta,Scheuerman,(903) 413-0746,(321) 562-4607,(014) 379-1959,67321 West Siam St.,Persistance,NY,34276
Kristofer,Housel,(349) 697-4525,(412) 740-0699,(278) 826-9687,123 Anywhere Street,Santa Monica,NY,33965
Anastasia,Crone,(232) 211-7605,(314) 554-4599,(484) 865-7174,48920 San Carlos,Santa Fe,NY,33858
Eleanor,Bradbury,(809) 927-2078,(839) 817-0009,(913) 698-8414,48920 San Carlos,Santa Monica,NY,33550
Cheryl,Mccormack,(137) 045-7053,(419) 898-5141,(140) 187-6415,9 IBM Path,Los Angeles,NY,33218
Marlin,Arceneaux,(946) 463-6935,(351) 489-7072,(455) 824-9807,48920 San Carlos,Salt Lake City,NY,32940
Jami,Huey,(008) 584-5029,(152) 808-4438,(601) 748-5699,999 Baker Way,Santa Monica,NY,32637
Marty,Parshall,(081) 850-7972,(651) 128-0622,(567) 176-7760,345 Sugar Blvd.,St. Petersburg,NY,32636
Juliet,Soderquist,(170) 494-8817,(130) 141-4153,(364) 216-7697,67321 West Siam St.,Cupertino,NY,32519
Neil,Overby,(398) 704-4077,(356) 291-4444,(273) 443-7257,345 Sugar Blvd.,San Mateo,NY,32464
Elias,Ahrens,(811) 269-5100,(713) 366-2029,(812) 713-1821,9 IBM Path,Ohio,NY,32411
Horacio,Howton,(739) 732-0409,(731) 310-1351,(678) 768-5421,111 Silicon Valley Road,Kansas City,NY,32123
Trinidad,Kaiser,(148) 959-0127,(073) 001-8556,(502) 283-4930,9 IBM Path,Cupertino,NY,31925
Cornelia,Plumb,(413) 583-1192,(955) 142-5580,(091) 507-3008,345 Sugar Blvd.,San Jose,NY,31857
Aaron,Snow,(536) 887-2042,(607) 344-3193,(789) 168-3530,67321 West Siam St.,Los Angeles,NY,31612
Jerold,Huffman,(812) 042-1189,(604) 577-7543,(261) 140-6864,345 Sugar Blvd.,Denver,NY,31497
Jonah,Kangas,(439) 561-2137,(076) 021-1136,(207) 339-1753,999 Baker Way,Kansas City,NY,31243
Heriberto,Orta,(158) 196-0225,(712) 715-0477,(087) 873-8088,123 Anywhere Street,Denver,NY,30981
Yesenia,Carson,(890) 677-1999,(197) 108-0446,(693) 269-9647,999 Baker Way,Denver,NY,30543
Dana,Hanley,(883) 065-3556,(608) 378-3741,(514) 207-9900,123 Anywhere Street,Sunnyvale,NY,30340
Claudette,Briscoe,(311) 153-4142,(367) 048-5018,(729) 097-0025,999 Baker Way,Ohio,NY,29774
Mervin,Birdsong,(705) 178-6934,(825) 913-0741,(112) 123-5267,1715 Scott Dr,Denver,NY,29319
Earline,Rambo,(291) 772-3049,(808) 273-5575,(557) 242-0892,999 Baker Way,San Jose,NY,28758
Christa,Holderman,(467) 970-8537,(076) 606-6564,(663) 892-5702,999 Baker Way,San Francisco,NY,28742
Michelle,Eubanks,(027) 147-8063,(985) 520-4323,(616) 678-5393,111 Silicon Valley Road,Alabama,NY,27343
Selina,Hertzler,(720) 050-4132,(315) 115-8867,(998) 426-0792,9 IBM Path,Salt Lake City,NY,27181
Bernice,Lipscomb,(248) 974-7068,(923) 537-4130,(195) 399-7614,1715 Scott Dr,Los Angeles,NY,26585
Brock,Cammack,(308) 634-1387,(804) 557-8705,(450) 422-5668,111 Silicon Valley Road,Alabama,NY,26578
Elma,Klein,(234) 979-6905,(493) 611-5281,(364) 011-8870,48920 San Carlos,Ohio,NY,26561
Cherry,Cort,(024) 286-2683,(998) 256-5640,(961) 837-3108,777 West Filmore,Kansas City,NY,26515
Alden,Eckhardt,(808) 619-8786,(781) 499-2165,(277) 063-1351,48920 San Carlos,Ohio,NY,26238
Alice,Weyant,(968) 223-8375,(297) 232-1298,(608) 497-9812,67321 West Siam St.,Santa Fe,NY,26091
Chrystal,Cory,(906) 235-7671,(945) 174-0584,(374) 509-8572,9 IBM Path,Los Angeles,NY,25451
Miquel,Hambright,(447) 103-1187,(236) 348-2731,(234) 622-8087,9 IBM Path,Cupertino,NY,25136
Nathan,Tolle,(229) 730-7247,(057) 507-9879,(981) 057-2387,345 Sugar Blvd.,Santa Monica,NY,25014
Rhoda,Greenman,(187) 250-1657,(761) 368-2671,(634) 377-2262,321 University Ave.,Santa Fe,NY,24622
Stan,Gies,(308) 817-0262,(867) 158-4320,(152) 241-0434,48920 San Carlos,Cupertino,NY,24317
Karyn,Griswold,(244) 726-7008,(497) 701-6311,(260) 348-0811,67321 West Siam St.,St. Petersburg,NY,24316
Major,Homer,(694) 625-0668,(367) 586-4692,(823) 593-0992,1715 Scott Dr,Salt Lake City,NY,24253
Mae,Deguzman,(713) 269-9277,(836) 712-4926,(880) 701-5445,999 Baker Way,St. Petersburg,NY,23890
Antony,Yoo,(277) 516-8630,(549) 714-6370,(143) 964-0307,67321 West Siam St.,Santa Fe,NY,23445
Monique,Buitron,(962) 283-8860,(402) 370-3741,(974) 161-4736,111 Silicon Valley Road,Santa Fe,NY,23414
Eddy,Derby,(558) 623-0906,(167) 676-4017,(622) 730-7326,48920 San Carlos,San Jose,NY,23371
Becky,Ivers,(370) 912-8311,(165) 047-9274,(196) 688-2130,345 Sugar Blvd.,San Francisco,NY,22696
Louie,Slawson,(920) 264-8237,(882) 299-5374,(012) 441-5646,777 West Filmore,Santa Monica,NY,22659
Alton,Foy,(947) 904-8012,(088) 120-2674,(125) 049-6522,9 IBM Path,San Jose,NY,22318
Rupert,Krupp,(277) 537-0341,(089) 303-8466,(636) 219-1737,111 Silicon Valley Road,Santa Fe,NY,21983
Joseph,Reily,(053) 356-4022,(538) 420-0199,(368) 789-4202,9 IBM Path,Persistance,NY,21910
Gail,Mundy,(619) 304-2812,(162) 485-3956,(997) 895-8975,111 Silicon Valley Road,Los Angeles,NY,21534
Gertrude,Shuler,(072) 678-3234,(045) 122-4573,(635) 615-1323,345 Sugar Blvd.,Cupertino,NY,21427
Dale,Heilman,(993) 412-1137,(842) 398-9952,(197) 327-8771,321 University Ave.,Denver,NY,21395
Dorthy,Hess,(685) 013-4610,(099) 006-4617,(288) 241-3986,111 Silicon Valley Road,Kansas City,NY,20831
Brianna,Small,(052) 940-5125,(712) 419-5083,(707) 933-0096,1715 Scott Dr,Kansas City,NY,20801
Gay,Swearingen,(426) 899-5174,(959) 407-6092,(330) 899-4921,999 Baker Way,Persistance,NY,19685
Mathew,Blauvelt,(642) 803-0309,(839) 491-4461,(735) 760-5466,345 Sugar Blvd.,Cupertino,NY,19480
Hope,Switzer,(670) 449-4820,(882) 688-8431,(518) 941-0411,1715 Scott Dr,San Jose,NY,19451
Brice,Manigault,(923) 739-6321,(708) 563-3350,(379) 324-9132,123 Anywhere Street,Kansas City,NY,19241
Alfonso,Sweetman,(388) 745-6842,(034) 021-9549,(485) 658-2669,9 IBM Path,Ohio,NY,18887
Tamra,Henning,(382) 561-3898,(475) 448-0464,(499) 321-7798,999 Baker Way,San Mateo,NY,18472
Scottie,Melcher,(343) 041-3149,(939) 749-6757,(587) 244-0701,67321 West Siam St.,Persistance,NY,18428
Mari,Funkhouser,(380) 075-1961,(728) 722-9315,(449) 588-0791,123 Anywhere Street,St. Petersburg,NY,18351
Refugio,Gerner,(757) 997-6103,(530) 850-8191,(203) 023-4051,345 Sugar Blvd.,Persistance,NY,18061
Savannah,Kratzer,(556) 009-7561,(961) 442-6578,(188) 989-8752,345 Sugar Blvd.,San Francisco,NY,17764
Isaac,Schurman,(797) 346-9685,(237) 224-1678,(474) 367-9502,1715 Scott Dr,San Mateo,NY,17613
Olivia,Philbrook,(226) 662-1106,(243) 994-3885,(384) 225-3556,345 Sugar Blvd.,San Francisco,NY,17512
Don,Rodrigez,(193) 499-0674,(724) 519-7516,(764) 219-0967,111 Silicon Valley Road,San Jose,NY,16424
Luciano,Logan,(327) 559-9331,(327) 876-0647,(233) 979-7859,48920 San Carlos,San Francisco,NY,16250
Fannie,Salas,(402) 323-5269,(922) 662-2112,(936) 509-4211,67321 West Siam St.,Persistance,NY,15950
Tabitha,Donaldson,(733) 201-9810,(539) 699-8569,(849) 084-5452,111 Silicon Valley Road,Ohio,NY,15920
Clare,Schulman,(812) 312-5210,(003) 611-2431,(337) 462-8398,48920 San Carlos,Kansas City,NY,15812
Garret,Goldfarb,(087) 795-8788,(961) 726-7573,(217) 480-4818,9 IBM Path,Alabama,NY,15644
Harley,Winegar,(569) 904-6646,(933) 738-7777,(448) 863-1780,999 Baker Way,Ohio,NY,15583
Richie,Skidmore,(928) 175-0954,(850) 367-9758,(763) 319-6612,48920 San Carlos,Sunnyvale,NY,15111
George,Rowen,(223) 572-9618,(395) 805-9957,(227) 674-0917,67321 West Siam St.,Santa Monica,NY,14480
Bobbie,Campo,(766) 558-3095,(014) 637-4333,(329) 424-2900,321 University Ave.,St. Petersburg,NY,14394
Brittney,Baylis,(033) 239-7487,(494) 872-0400,(027) 515-4014,48920 San Carlos,San Jose,NY,14338
Tommie,Rawlings,(272) 960-0931,(155) 321-3875,(648) 615-2512,67321 West Siam St.,Los Angeles,NY,14131
Cornelia,Michel,(140) 358-3913,(953) 438-9851,(974) 597-2325,345 Sugar Blvd.,Los Angeles,NY,13335
Man,Chalfant,(185) 845-2380,(178) 849-9951,(220) 997-5572,1715 Scott Dr,Denver,NY,13254
Dorothy,Mclaurin,(886) 219-7191,(575) 999-3690,(151) 148-5813,1715 Scott Dr,Santa Fe,NY,12848
Zachery,Lindholm,(520) 178-1253,(977) 274-9085,(446) 843-0428,1715 Scott Dr,Sunnyvale,NY,12713
Judith,Passarelli,(762) 026-0924,(735) 874-8118,(050) 558-7570,123 Anywhere Street,Kansas City,NY,12374
Ingrid,Snapp,(118) 055-0942,(976) 426-2846,(270) 994-5616,67321 West Siam St.,San Mateo,NY,12319
Allan,Lao,(268) 548-2863,(540) 162-9019,(636) 895-5812,345 Sugar Blvd.,Kansas City,NY,12097
Serena,Ohearn,(028) 383-3787,(652) 840-8902,(213) 072-5879,345 Sugar Blvd.,Salt Lake City,NY,11975
Emanuel,Owens,(408) 191-9478,(539) 336-6631,(257) 462-5588,321 University Ave.,Santa Fe,NY,11538
Bret,Brammer,(634) 391-1471,(922) 441-0276,(119) 729-1494,48920 San Carlos,Cupertino,NY,10805
Lucinda,Burkhead,(364) 665-6845,(883) 929-6305,(536) 565-6436,48920 San Carlos,San Mateo,NY,10681
Lyle,Tuck,(568) 610-1460,(068) 259-4075,(619) 408-9666,9 IBM Path,Los Angeles,NY,10676
